{
"type": "FeatureCollection",
"name": "public_realm",
"crs": { "type": "name", "properties": { "name": "urn:ogc:def:crs:OGC:1.3:CRS84" } },
"xy_coordinate_resolution": 1e-06,
"features": [
{ "type": "Feature", "properties": { "part": "Medlock Green Way" }, "geometry": { "type": "Polygon", "coordinates": [ [ [ -2.217543, 53.476617 ], [ -2.217522, 53.476616 ], [ -2.217521, 53.476616 ], [ -2.216532, 53.476556 ], [ -2.21653, 53.476556 ], [ -2.216482, 53.476552 ], [ -2.216479, 53.476551 ], [ -2.216442, 53.476545 ], [ -2.216441, 53.476546 ], [ -2.216316, 53.476638 ], [ -2.216315, 53.476639 ], [ -2.216122, 53.476862 ], [ -2.216121, 53.476863 ], [ -2.216103, 53.476975 ], [ -2.216103, 53.476976 ], [ -2.21613, 53.477252 ], [ -2.21613, 53.477253 ], [ -2.216188, 53.477512 ], [ -2.216188, 53.477513 ], [ -2.216191, 53.477535 ], [ -2.216192, 53.477536 ], [ -2.216202, 53.477655 ], [ -2.216202, 53.477656 ], [ -2.216201, 53.477684 ], [ -2.216201, 53.477686 ], [ -2.216196, 53.477714 ], [ -2.216196, 53.477716 ], [ -2.216186, 53.477743 ], [ -2.216186, 53.477744 ], [ -2.216146, 53.477833 ], [ -2.216146, 53.477834 ], [ -2.216133, 53.477859 ], [ -2.216132, 53.47786 ], [ -2.216115, 53.477884 ], [ -2.216114, 53.477885 ], [ -2.216094, 53.477908 ], [ -2.216092, 53.477909 ], [ -2.216069, 53.47793 ], [ -2.216067, 53.477931 ], [ -2.21604, 53.477951 ], [ -2.216039, 53.477952 ], [ -2.21586, 53.478071 ], [ -2.215859, 53.478072 ], [ -2.215829, 53.47809 ], [ -2.215827, 53.478091 ], [ -2.215796, 53.478107 ], [ -2.215794, 53.478108 ], [ -2.21576, 53.478122 ], [ -2.215758, 53.478123 ], [ -2.215722, 53.478135 ], [ -2.21572, 53.478136 ], [ -2.215081, 53.478333 ], [ -2.21508, 53.478333 ], [ -2.21424, 53.478619 ], [ -2.214239, 53.47862 ], [ -2.214199, 53.478632 ], [ -2.214197, 53.478633 ], [ -2.214155, 53.478642 ], [ -2.214154, 53.478643 ], [ -2.213165, 53.478842 ], [ -2.213164, 53.478842 ], [ -2.213143, 53.478846 ], [ -2.213107, 53.478853 ], [ -2.213686, 53.479109 ], [ -2.213687, 53.479109 ], [ -2.213706, 53.479118 ], [ -2.214001, 53.479262 ], [ -2.214003, 53.479263 ], [ -2.214005, 53.479265 ], [ -2.214007, 53.479266 ], [ -2.214008, 53.479268 ], [ -2.21401, 53.479269 ], [ -2.214011, 53.479271 ], [ -2.214011, 53.479272 ], [ -2.214012, 53.479274 ], [ -2.214012, 53.479276 ], [ -2.214012, 53.479278 ], [ -2.214012, 53.479279 ], [ -2.214011, 53.479281 ], [ -2.21401, 53.479283 ], [ -2.214009, 53.479284 ], [ -2.214008, 53.479286 ], [ -2.214006, 53.479287 ], [ -2.214004, 53.479288 ], [ -2.214002, 53.47929 ], [ -2.214001, 53.47929 ], [ -2.213884, 53.479358 ], [ -2.21388, 53.479361 ], [ -2.213879, 53.479361 ], [ -2.213877, 53.479363 ], [ -2.213876, 53.479364 ], [ -2.213874, 53.479366 ], [ -2.213873, 53.479367 ], [ -2.213871, 53.479369 ], [ -2.21387, 53.47937 ], [ -2.213869, 53.479373 ], [ -2.213868, 53.479374 ], [ -2.213867, 53.479376 ], [ -2.213867, 53.479377 ], [ -2.213866, 53.47938 ], [ -2.213866, 53.479383 ], [ -2.213866, 53.479384 ], [ -2.213866, 53.479387 ], [ -2.213866, 53.479388 ], [ -2.213867, 53.47939 ], [ -2.213867, 53.479391 ], [ -2.213868, 53.479394 ], [ -2.21387, 53.479397 ], [ -2.21387, 53.479398 ], [ -2.213872, 53.4794 ], [ -2.213873, 53.479401 ], [ -2.213875, 53.479403 ], [ -2.213876, 53.479404 ], [ -2.213879, 53.479406 ], [ -2.213879, 53.479407 ], [ -2.213883, 53.479409 ], [ -2.214113, 53.479549 ], [ -2.214117, 53.479551 ], [ -2.214118, 53.479552 ], [ -2.214122, 53.479553 ], [ -2.214123, 53.479554 ], [ -2.214127, 53.479555 ], [ -2.214128, 53.479556 ], [ -2.214132, 53.479557 ], [ -2.214133, 53.479557 ], [ -2.214138, 53.479558 ], [ -2.214139, 53.479558 ], [ -2.214143, 53.479559 ], [ -2.214145, 53.479559 ], [ -2.214149, 53.47956 ], [ -2.214151, 53.47956 ], [ -2.214155, 53.47956 ], [ -2.214157, 53.47956 ], [ -2.214161, 53.47956 ], [ -2.214163, 53.47956 ], [ -2.214167, 53.479559 ], [ -2.214169, 53.479559 ], [ -2.214173, 53.479558 ], [ -2.214176, 53.479558 ], [ -2.214179, 53.479558 ], [ -2.214182, 53.479558 ], [ -2.214185, 53.479558 ], [ -2.214187, 53.479558 ], [ -2.21419, 53.479559 ], [ -2.214193, 53.479559 ], [ -2.214195, 53.47956 ], [ -2.214198, 53.479561 ], [ -2.2142, 53.479562 ], [ -2.214202, 53.479563 ], [ -2.214276, 53.479608 ], [ -2.21428, 53.47961 ], [ -2.214281, 53.479611 ], [ -2.214284, 53.479612 ], [ -2.214286, 53.479613 ], [ -2.214289, 53.479614 ], [ -2.214291, 53.479615 ], [ -2.214295, 53.479616 ], [ -2.214296, 53.479616 ], [ -2.2143, 53.479617 ], [ -2.214302, 53.479617 ], [ -2.214306, 53.479618 ], [ -2.214307, 53.479618 ], [ -2.214312, 53.479619 ], [ -2.214313, 53.479619 ], [ -2.214318, 53.479619 ], [ -2.214319, 53.479619 ], [ -2.214324, 53.479619 ], [ -2.214325, 53.479619 ], [ -2.214329, 53.479618 ], [ -2.214331, 53.479618 ], [ -2.214335, 53.479618 ], [ -2.214337, 53.479617 ], [ -2.214341, 53.479616 ], [ -2.214342, 53.479616 ], [ -2.214346, 53.479615 ], [ -2.214347, 53.479615 ], [ -2.214351, 53.479613 ], [ -2.214353, 53.479613 ], [ -2.214356, 53.479611 ], [ -2.214357, 53.479611 ], [ -2.214361, 53.479609 ], [ -2.214456, 53.479554 ], [ -2.214458, 53.479552 ], [ -2.21446, 53.479551 ], [ -2.214463, 53.47955 ], [ -2.214465, 53.47955 ], [ -2.214468, 53.479549 ], [ -2.214471, 53.479549 ], [ -2.214474, 53.479548 ], [ -2.214477, 53.479548 ], [ -2.21448, 53.479549 ], [ -2.214483, 53.479549 ], [ -2.214486, 53.479549 ], [ -2.214488, 53.47955 ], [ -2.214491, 53.479551 ], [ -2.214493, 53.479551 ], [ -2.214496, 53.479553 ], [ -2.214498, 53.479554 ], [ -2.2145, 53.479555 ], [ -2.214502, 53.479556 ], [ -2.214503, 53.479558 ], [ -2.214504, 53.47956 ], [ -2.214505, 53.479561 ], [ -2.214506, 53.479563 ], [ -2.214507, 53.479565 ], [ -2.214507, 53.479566 ], [ -2.214507, 53.479568 ], [ -2.214506, 53.47957 ], [ -2.214506, 53.479572 ], [ -2.214505, 53.479573 ], [ -2.214503, 53.479575 ], [ -2.214412, 53.479678 ], [ -2.21441, 53.479681 ], [ -2.214409, 53.479682 ], [ -2.214407, 53.479684 ], [ -2.214407, 53.479685 ], [ -2.214406, 53.479688 ], [ -2.214406, 53.479689 ], [ -2.214405, 53.479691 ], [ -2.214405, 53.479692 ], [ -2.214405, 53.479695 ], [ -2.214405, 53.479696 ], [ -2.214405, 53.479698 ], [ -2.214405, 53.479699 ], [ -2.214406, 53.479702 ], [ -2.214406, 53.479703 ], [ -2.214407, 53.479705 ], [ -2.214408, 53.479706 ], [ -2.214409, 53.479709 ], [ -2.21441, 53.479709 ], [ -2.214412, 53.479712 ], [ -2.214412, 53.479713 ], [ -2.214415, 53.479715 ], [ -2.214416, 53.479716 ], [ -2.214418, 53.479718 ], [ -2.214419, 53.479718 ], [ -2.214422, 53.47972 ], [ -2.214423, 53.479721 ], [ -2.214427, 53.479723 ], [ -2.214428, 53.479723 ], [ -2.214431, 53.479725 ], [ -2.214433, 53.479725 ], [ -2.214437, 53.479727 ], [ -2.214565, 53.479767 ], [ -2.21457, 53.479768 ], [ -2.214571, 53.479768 ], [ -2.214575, 53.479769 ], [ -2.214577, 53.47977 ], [ -2.214581, 53.47977 ], [ -2.214583, 53.47977 ], [ -2.214587, 53.479771 ], [ -2.214588, 53.479771 ], [ -2.214593, 53.479771 ], [ -2.214594, 53.479771 ], [ -2.214599, 53.479771 ], [ -2.2146, 53.479771 ], [ -2.214605, 53.47977 ], [ -2.214606, 53.47977 ], [ -2.21461, 53.479769 ], [ -2.214612, 53.479769 ], [ -2.214616, 53.479768 ], [ -2.214617, 53.479768 ], [ -2.214621, 53.479767 ], [ -2.214623, 53.479766 ], [ -2.214627, 53.479765 ], [ -2.214628, 53.479764 ], [ -2.214631, 53.479763 ], [ -2.214632, 53.479762 ], [ -2.214636, 53.47976 ], [ -2.214637, 53.47976 ], [ -2.21464, 53.479758 ], [ -2.214641, 53.479757 ], [ -2.214643, 53.479755 ], [ -2.214644, 53.479754 ], [ -2.214646, 53.479752 ], [ -2.214647, 53.479751 ], [ -2.214729, 53.479656 ], [ -2.214731, 53.479654 ], [ -2.214732, 53.479653 ], [ -2.214734, 53.479652 ], [ -2.214736, 53.47965 ], [ -2.214739, 53.479649 ], [ -2.214741, 53.479648 ], [ -2.214744, 53.479648 ], [ -2.214746, 53.479647 ], [ -2.214749, 53.479646 ], [ -2.214752, 53.479646 ], [ -2.214755, 53.479646 ], [ -2.214758, 53.479646 ], [ -2.214761, 53.479646 ], [ -2.214764, 53.479647 ], [ -2.214767, 53.479647 ], [ -2.214769, 53.479648 ], [ -2.214772, 53.479649 ], [ -2.214774, 53.47965 ], [ -2.214776, 53.479651 ], [ -2.214779, 53.479652 ], [ -2.21478, 53.479654 ], [ -2.214805, 53.479674 ], [ -2.214806, 53.479675 ], [ -2.21483, 53.4797 ], [ -2.214831, 53.479701 ], [ -2.21485, 53.479727 ], [ -2.214851, 53.479729 ], [ -2.214866, 53.479756 ], [ -2.214866, 53.479757 ], [ -2.214879, 53.479785 ], [ -2.21488, 53.479787 ], [ -2.21488, 53.479789 ], [ -2.21488, 53.479791 ], [ -2.21488, 53.479793 ], [ -2.214879, 53.479795 ], [ -2.214878, 53.479796 ], [ -2.214877, 53.479798 ], [ -2.214875, 53.4798 ], [ -2.214874, 53.479801 ], [ -2.214872, 53.479803 ], [ -2.214872, 53.479804 ], [ -2.21487, 53.479807 ], [ -2.21487, 53.479808 ], [ -2.214869, 53.47981 ], [ -2.214869, 53.479811 ], [ -2.214868, 53.479814 ], [ -2.214868, 53.479817 ], [ -2.214868, 53.479818 ], [ -2.214868, 53.479821 ], [ -2.214868, 53.479822 ], [ -2.214869, 53.479824 ], [ -2.214869, 53.479825 ], [ -2.21487, 53.479828 ], [ -2.214871, 53.479828 ], [ -2.214872, 53.479831 ], [ -2.214873, 53.479832 ], [ -2.214875, 53.479834 ], [ -2.214876, 53.479835 ], [ -2.214877, 53.479836 ], [ -2.214878, 53.479838 ], [ -2.214879, 53.479839 ], [ -2.21488, 53.479841 ], [ -2.21488, 53.479843 ], [ -2.21488, 53.479844 ], [ -2.21488, 53.479846 ], [ -2.214879, 53.479848 ], [ -2.214879, 53.47985 ], [ -2.214878, 53.479851 ], [ -2.214876, 53.479853 ], [ -2.214875, 53.479854 ], [ -2.214873, 53.479856 ], [ -2.214871, 53.479857 ], [ -2.214869, 53.479858 ], [ -2.214867, 53.479859 ], [ -2.214866, 53.479859 ], [ -2.214862, 53.479861 ], [ -2.214861, 53.479862 ], [ -2.214858, 53.479863 ], [ -2.214857, 53.479864 ], [ -2.214854, 53.479866 ], [ -2.214853, 53.479867 ], [ -2.21485, 53.479869 ], [ -2.214849, 53.47987 ], [ -2.214847, 53.479872 ], [ -2.214846, 53.479873 ], [ -2.214844, 53.479875 ], [ -2.214844, 53.479876 ], [ -2.214842, 53.479878 ], [ -2.214842, 53.479879 ], [ -2.214841, 53.479882 ], [ -2.214841, 53.479883 ], [ -2.21484, 53.479886 ], [ -2.214836, 53.479913 ], [ -2.214836, 53.479916 ], [ -2.214836, 53.479917 ], [ -2.214836, 53.479919 ], [ -2.214836, 53.47992 ], [ -2.214837, 53.479923 ], [ -2.214837, 53.479924 ], [ -2.214838, 53.479926 ], [ -2.214839, 53.479927 ], [ -2.21484, 53.47993 ], [ -2.214841, 53.479931 ], [ -2.214842, 53.479933 ], [ -2.214842, 53.479935 ], [ -2.214843, 53.479936 ], [ -2.214842, 53.479938 ], [ -2.214842, 53.47994 ], [ -2.214841, 53.479942 ], [ -2.21484, 53.479943 ], [ -2.214839, 53.479945 ], [ -2.214838, 53.479946 ], [ -2.214837, 53.479948 ], [ -2.214836, 53.479949 ], [ -2.214834, 53.479951 ], [ -2.214834, 53.479952 ], [ -2.214833, 53.479955 ], [ -2.214833, 53.479956 ], [ -2.214832, 53.479958 ], [ -2.214832, 53.479959 ], [ -2.214828, 53.479984 ], [ -2.214828, 53.479985 ], [ -2.214828, 53.479988 ], [ -2.214828, 53.479989 ], [ -2.214828, 53.479991 ], [ -2.214828, 53.479993 ], [ -2.214828, 53.479994 ], [ -2.214828, 53.479995 ], [ -2.214828, 53.479997 ], [ -2.214828, 53.479999 ], [ -2.214827, 53.48 ], [ -2.214826, 53.480002 ], [ -2.214824, 53.480004 ], [ -2.214822, 53.480006 ], [ -2.214821, 53.480007 ], [ -2.214819, 53.480009 ], [ -2.214819, 53.48001 ], [ -2.214817, 53.480012 ], [ -2.214817, 53.480013 ], [ -2.214816, 53.480016 ], [ -2.214816, 53.480017 ], [ -2.214815, 53.480019 ], [ -2.214815, 53.48002 ], [ -2.214811, 53.480045 ], [ -2.214811, 53.480046 ], [ -2.214811, 53.480049 ], [ -2.214811, 53.48005 ], [ -2.214811, 53.480052 ], [ -2.214811, 53.480053 ], [ -2.214812, 53.480056 ], [ -2.214812, 53.480057 ], [ -2.214813, 53.480059 ], [ -2.214814, 53.48006 ], [ -2.214815, 53.480062 ], [ -2.214816, 53.480063 ], [ -2.214817, 53.480065 ], [ -2.214817, 53.480067 ], [ -2.214818, 53.480068 ], [ -2.214818, 53.48007 ], [ -2.214818, 53.480072 ], [ -2.214817, 53.480074 ], [ -2.214816, 53.480076 ], [ -2.214815, 53.480077 ], [ -2.214814, 53.480079 ], [ -2.214813, 53.48008 ], [ -2.214811, 53.480082 ], [ -2.214811, 53.480083 ], [ -2.214809, 53.480085 ], [ -2.214809, 53.480086 ], [ -2.214808, 53.480089 ], [ -2.214808, 53.48009 ], [ -2.214807, 53.480092 ], [ -2.214807, 53.480093 ], [ -2.214803, 53.480117 ], [ -2.214803, 53.480118 ], [ -2.214803, 53.480121 ], [ -2.214803, 53.480122 ], [ -2.214803, 53.480124 ], [ -2.214803, 53.480125 ], [ -2.214804, 53.480128 ], [ -2.214804, 53.480129 ], [ -2.214805, 53.480131 ], [ -2.214806, 53.480132 ], [ -2.214807, 53.480134 ], [ -2.214808, 53.480135 ], [ -2.21481, 53.480138 ], [ -2.214813, 53.480141 ], [ -2.214815, 53.480143 ], [ -2.214816, 53.480144 ], [ -2.214817, 53.480146 ], [ -2.214818, 53.480148 ], [ -2.214818, 53.480149 ], [ -2.214818, 53.480151 ], [ -2.214818, 53.480153 ], [ -2.214818, 53.480154 ], [ -2.214817, 53.480156 ], [ -2.214817, 53.480158 ], [ -2.214813, 53.480164 ], [ -2.214812, 53.480165 ], [ -2.214792, 53.480189 ], [ -2.21479, 53.480191 ], [ -2.214766, 53.480214 ], [ -2.214765, 53.480215 ], [ -2.214737, 53.480236 ], [ -2.214735, 53.480238 ], [ -2.214704, 53.480257 ], [ -2.214702, 53.480258 ], [ -2.214668, 53.480276 ], [ -2.214666, 53.480277 ], [ -2.214518, 53.480346 ], [ -2.214516, 53.480347 ], [ -2.214477, 53.480363 ], [ -2.214475, 53.480364 ], [ -2.214435, 53.480377 ], [ -2.214433, 53.480378 ], [ -2.21443, 53.480379 ], [ -2.214427, 53.480379 ], [ -2.214424, 53.480379 ], [ -2.214421, 53.48038 ], [ -2.214418, 53.48038 ], [ -2.214416, 53.480379 ], [ -2.214413, 53.480379 ], [ -2.21441, 53.480378 ], [ -2.214407, 53.480378 ], [ -2.214405, 53.480377 ], [ -2.214361, 53.480361 ], [ -2.214357, 53.48036 ], [ -2.214355, 53.480359 ], [ -2.214351, 53.480358 ], [ -2.21435, 53.480358 ], [ -2.214346, 53.480357 ], [ -2.214344, 53.480357 ], [ -2.21434, 53.480357 ], [ -2.214338, 53.480356 ], [ -2.214334, 53.480356 ], [ -2.214332, 53.480356 ], [ -2.214328, 53.480356 ], [ -2.214327, 53.480356 ], [ -2.214322, 53.480356 ], [ -2.214321, 53.480356 ], [ -2.214316, 53.480357 ], [ -2.214313, 53.480357 ], [ -2.21431, 53.480357 ], [ -2.214307, 53.480357 ], [ -2.214304, 53.480357 ], [ -2.214301, 53.480357 ], [ -2.214299, 53.480356 ], [ -2.214296, 53.480355 ], [ -2.214293, 53.480354 ], [ -2.214291, 53.480353 ], [ -2.214289, 53.480352 ], [ -2.214287, 53.480351 ], [ -2.214285, 53.480349 ], [ -2.214284, 53.480348 ], [ -2.214282, 53.480346 ], [ -2.214281, 53.480344 ], [ -2.214281, 53.480343 ], [ -2.21428, 53.480341 ], [ -2.21428, 53.480339 ], [ -2.21428, 53.480338 ], [ -2.21428, 53.480336 ], [ -2.21428, 53.480335 ], [ -2.214279, 53.480332 ], [ -2.214279, 53.480331 ], [ -2.214278, 53.480329 ], [ -2.214278, 53.480328 ], [ -2.214276, 53.480326 ], [ -2.214276, 53.480325 ], [ -2.214274, 53.480322 ], [ -2.214271, 53.480319 ], [ -2.214268, 53.480316 ], [ -2.214267, 53.480316 ], [ -2.214264, 53.480314 ], [ -2.214264, 53.480313 ], [ -2.21426, 53.480311 ], [ -2.214259, 53.480311 ], [ -2.214256, 53.480309 ], [ -2.214255, 53.480309 ], [ -2.214251, 53.480307 ], [ -2.21425, 53.480307 ], [ -2.213971, 53.480209 ], [ -2.21397, 53.480209 ], [ -2.213966, 53.480208 ], [ -2.213964, 53.480207 ], [ -2.21396, 53.480206 ], [ -2.213959, 53.480206 ], [ -2.213954, 53.480205 ], [ -2.213953, 53.480205 ], [ -2.213949, 53.480204 ], [ -2.213947, 53.480204 ], [ -2.213943, 53.480204 ], [ -2.213941, 53.480204 ], [ -2.213937, 53.480204 ], [ -2.213935, 53.480204 ], [ -2.213931, 53.480205 ], [ -2.213929, 53.480205 ], [ -2.213925, 53.480205 ], [ -2.213923, 53.480205 ], [ -2.213919, 53.480206 ], [ -2.213917, 53.480207 ], [ -2.213913, 53.480208 ], [ -2.213912, 53.480208 ], [ -2.213908, 53.48021 ], [ -2.213907, 53.48021 ], [ -2.213903, 53.480212 ], [ -2.213902, 53.480212 ], [ -2.213899, 53.480214 ], [ -2.213897, 53.480215 ], [ -2.213894, 53.480217 ], [ -2.213893, 53.480217 ], [ -2.21389, 53.48022 ], [ -2.213801, 53.480298 ], [ -2.213799, 53.480299 ], [ -2.213797, 53.4803 ], [ -2.213795, 53.480302 ], [ -2.213792, 53.480303 ], [ -2.21379, 53.480304 ], [ -2.213787, 53.480304 ], [ -2.213784, 53.480305 ], [ -2.213781, 53.480305 ], [ -2.213778, 53.480306 ], [ -2.213775, 53.480306 ], [ -2.213772, 53.480305 ], [ -2.213769, 53.480305 ], [ -2.213766, 53.480305 ], [ -2.213764, 53.480304 ], [ -2.213761, 53.480303 ], [ -2.213758, 53.480302 ], [ -2.213756, 53.480301 ], [ -2.213754, 53.4803 ], [ -2.213753, 53.480299 ], [ -2.213749, 53.480297 ], [ -2.213748, 53.480296 ], [ -2.213745, 53.480294 ], [ -2.213744, 53.480294 ], [ -2.213741, 53.480292 ], [ -2.21374, 53.480292 ], [ -2.213736, 53.48029 ], [ -2.213735, 53.48029 ], [ -2.213731, 53.480289 ], [ -2.21373, 53.480288 ], [ -2.213725, 53.480287 ], [ -2.213724, 53.480287 ], [ -2.21372, 53.480286 ], [ -2.213718, 53.480286 ], [ -2.213714, 53.480285 ], [ -2.213713, 53.480285 ], [ -2.213708, 53.480285 ], [ -2.213707, 53.480285 ], [ -2.213703, 53.480285 ], [ -2.213701, 53.480285 ], [ -2.213697, 53.480285 ], [ -2.213695, 53.480286 ], [ -2.213691, 53.480286 ], [ -2.21369, 53.480286 ], [ -2.213464, 53.48032 ], [ -2.213463, 53.48032 ], [ -2.213458, 53.480321 ], [ -2.213457, 53.480321 ], [ -2.213452, 53.480323 ], [ -2.213451, 53.480323 ], [ -2.213225, 53.480389 ], [ -2.213224, 53.480389 ], [ -2.213069, 53.480435 ], [ -2.213068, 53.480435 ], [ -2.213063, 53.480436 ], [ -2.213062, 53.480437 ], [ -2.213057, 53.480439 ], [ -2.212818, 53.480554 ], [ -2.212814, 53.480556 ], [ -2.212813, 53.480557 ], [ -2.21281, 53.480559 ], [ -2.212809, 53.480559 ], [ -2.212807, 53.480561 ], [ -2.212806, 53.480562 ], [ -2.212804, 53.480564 ], [ -2.212803, 53.480565 ], [ -2.212801, 53.480568 ], [ -2.2128, 53.480568 ], [ -2.212557, 53.480906 ], [ -2.212556, 53.480906 ], [ -2.212555, 53.480909 ], [ -2.212554, 53.48091 ], [ -2.212553, 53.480912 ], [ -2.212553, 53.480913 ], [ -2.212552, 53.480916 ], [ -2.212552, 53.480919 ], [ -2.212552, 53.48092 ], [ -2.212552, 53.480923 ], [ -2.212553, 53.480926 ], [ -2.212553, 53.480927 ], [ -2.212554, 53.48093 ], [ -2.212556, 53.480933 ], [ -2.212556, 53.480934 ], [ -2.212558, 53.480936 ], [ -2.212559, 53.480937 ], [ -2.212561, 53.480939 ], [ -2.212562, 53.48094 ], [ -2.212564, 53.480942 ], [ -2.212565, 53.480943 ], [ -2.212568, 53.480945 ], [ -2.212569, 53.480945 ], [ -2.212573, 53.480947 ], [ -2.212574, 53.480948 ], [ -2.212578, 53.48095 ], [ -2.212852, 53.481062 ], [ -2.212856, 53.481063 ], [ -2.212858, 53.481064 ], [ -2.212862, 53.481065 ], [ -2.212863, 53.481065 ], [ -2.212867, 53.481066 ], [ -2.212869, 53.481066 ], [ -2.212873, 53.481067 ], [ -2.212876, 53.481068 ], [ -2.212879, 53.481068 ], [ -2.212882, 53.481069 ], [ -2.212884, 53.48107 ], [ -2.212887, 53.481071 ], [ -2.212889, 53.481072 ], [ -2.212891, 53.481074 ], [ -2.212893, 53.481075 ], [ -2.212894, 53.481077 ], [ -2.212895, 53.481078 ], [ -2.212896, 53.48108 ], [ -2.212897, 53.481082 ], [ -2.212897, 53.481083 ], [ -2.212897, 53.481085 ], [ -2.212897, 53.481087 ], [ -2.212897, 53.481089 ], [ -2.212896, 53.48109 ], [ -2.212868, 53.481141 ], [ -2.212867, 53.481142 ], [ -2.212859, 53.481154 ], [ -2.212858, 53.481155 ], [ -2.212856, 53.481157 ], [ -2.212855, 53.481158 ], [ -2.212853, 53.48116 ], [ -2.212851, 53.481161 ], [ -2.212849, 53.481162 ], [ -2.212846, 53.481163 ], [ -2.212844, 53.481164 ], [ -2.212841, 53.481164 ], [ -2.212838, 53.481165 ], [ -2.212835, 53.481165 ], [ -2.212832, 53.481165 ], [ -2.21283, 53.481165 ], [ -2.212827, 53.481165 ], [ -2.212824, 53.481165 ], [ -2.212821, 53.481164 ], [ -2.212818, 53.481164 ], [ -2.212816, 53.481163 ], [ -2.212711, 53.481127 ], [ -2.212706, 53.481125 ], [ -2.212705, 53.481125 ], [ -2.212701, 53.481124 ], [ -2.2127, 53.481124 ], [ -2.212695, 53.481123 ], [ -2.212694, 53.481123 ], [ -2.21269, 53.481122 ], [ -2.212688, 53.481122 ], [ -2.212684, 53.481122 ], [ -2.212682, 53.481122 ], [ -2.212678, 53.481122 ], [ -2.212676, 53.481122 ], [ -2.212672, 53.481122 ], [ -2.21267, 53.481123 ], [ -2.212666, 53.481123 ], [ -2.212665, 53.481123 ], [ -2.21266, 53.481124 ], [ -2.212659, 53.481125 ], [ -2.212655, 53.481126 ], [ -2.212654, 53.481126 ], [ -2.21265, 53.481127 ], [ -2.212649, 53.481128 ], [ -2.212645, 53.481129 ], [ -2.212644, 53.48113 ], [ -2.21264, 53.481131 ], [ -2.212639, 53.481132 ], [ -2.212636, 53.481134 ], [ -2.212635, 53.481135 ], [ -2.212632, 53.481137 ], [ -2.212629, 53.48114 ], [ -2.212454, 53.481321 ], [ -2.212451, 53.481324 ], [ -2.212451, 53.481325 ], [ -2.212449, 53.481327 ], [ -2.212449, 53.481328 ], [ -2.212447, 53.48133 ], [ -2.212447, 53.481331 ], [ -2.212446, 53.481334 ], [ -2.212446, 53.481335 ], [ -2.212446, 53.481337 ], [ -2.212446, 53.481338 ], [ -2.212446, 53.481341 ], [ -2.212446, 53.481342 ], [ -2.212446, 53.481344 ], [ -2.212447, 53.481345 ], [ -2.212448, 53.481348 ], [ -2.212448, 53.481349 ], [ -2.212449, 53.481351 ], [ -2.21245, 53.481352 ], [ -2.212452, 53.481355 ], [ -2.212454, 53.481358 ], [ -2.212455, 53.481358 ], [ -2.212458, 53.481361 ], [ -2.212459, 53.481361 ], [ -2.212462, 53.481363 ], [ -2.212463, 53.481364 ], [ -2.212466, 53.481366 ], [ -2.212467, 53.481366 ], [ -2.21247, 53.481368 ], [ -2.212472, 53.481368 ], [ -2.212476, 53.48137 ], [ -2.212492, 53.481376 ], [ -2.212495, 53.481377 ], [ -2.212497, 53.481378 ], [ -2.212499, 53.481379 ], [ -2.212501, 53.481381 ], [ -2.212503, 53.481382 ], [ -2.212504, 53.481384 ], [ -2.212506, 53.481385 ], [ -2.212506, 53.481387 ], [ -2.212507, 53.481389 ], [ -2.212507, 53.48139 ], [ -2.212507, 53.481392 ], [ -2.212507, 53.481394 ], [ -2.212506, 53.481396 ], [ -2.212506, 53.481397 ], [ -2.212504, 53.481399 ], [ -2.212503, 53.481401 ], [ -2.212501, 53.481402 ], [ -2.212499, 53.481404 ], [ -2.212497, 53.481405 ], [ -2.212441, 53.481435 ], [ -2.21244, 53.481435 ], [ -2.212407, 53.481451 ], [ -2.212405, 53.481452 ], [ -2.212371, 53.481466 ], [ -2.212368, 53.481467 ], [ -2.212331, 53.481478 ], [ -2.21233, 53.481479 ], [ -2.211615, 53.481686 ], [ -2.211614, 53.481687 ], [ -2.211615, 53.481687 ], [ -2.211773, 53.481712 ], [ -2.211775, 53.481712 ], [ -2.211821, 53.481721 ], [ -2.211824, 53.481722 ], [ -2.211868, 53.481734 ], [ -2.21187, 53.481734 ], [ -2.212329, 53.481874 ], [ -2.21233, 53.481874 ], [ -2.212359, 53.481884 ], [ -2.212361, 53.481885 ], [ -2.21239, 53.481896 ], [ -2.212741, 53.482045 ], [ -2.212744, 53.482046 ], [ -2.212746, 53.482048 ], [ -2.212748, 53.482049 ], [ -2.212749, 53.48205 ], [ -2.212751, 53.482052 ], [ -2.212752, 53.482054 ], [ -2.212753, 53.482055 ], [ -2.212754, 53.482057 ], [ -2.212754, 53.482059 ], [ -2.212754, 53.482061 ], [ -2.212754, 53.482062 ], [ -2.212753, 53.482064 ], [ -2.212752, 53.482066 ], [ -2.212751, 53.482067 ], [ -2.21275, 53.482069 ], [ -2.21273, 53.48209 ], [ -2.212729, 53.48209 ], [ -2.212727, 53.482093 ], [ -2.212727, 53.482094 ], [ -2.212725, 53.482096 ], [ -2.212725, 53.482097 ], [ -2.212723, 53.4821 ], [ -2.212722, 53.482103 ], [ -2.212722, 53.482104 ], [ -2.212722, 53.482107 ], [ -2.212722, 53.482108 ], [ -2.212722, 53.48211 ], [ -2.212722, 53.482111 ], [ -2.212723, 53.482114 ], [ -2.212723, 53.482115 ], [ -2.212724, 53.482117 ], [ -2.212724, 53.482118 ], [ -2.212726, 53.482121 ], [ -2.212728, 53.482124 ], [ -2.212729, 53.482125 ], [ -2.212731, 53.482127 ], [ -2.212732, 53.482128 ], [ -2.212734, 53.48213 ], [ -2.212735, 53.482131 ], [ -2.212738, 53.482133 ], [ -2.212739, 53.482133 ], [ -2.212742, 53.482135 ], [ -2.212743, 53.482136 ], [ -2.212747, 53.482137 ], [ -2.212748, 53.482138 ], [ -2.213046, 53.482261 ], [ -2.213047, 53.482262 ], [ -2.213051, 53.482263 ], [ -2.213052, 53.482264 ], [ -2.213056, 53.482265 ], [ -2.213058, 53.482265 ], [ -2.213062, 53.482266 ], [ -2.213063, 53.482266 ], [ -2.213067, 53.482267 ], [ -2.213069, 53.482267 ], [ -2.213073, 53.482268 ], [ -2.213075, 53.482268 ], [ -2.213078, 53.482268 ], [ -2.213081, 53.482269 ], [ -2.213084, 53.482269 ], [ -2.213087, 53.48227 ], [ -2.213089, 53.482271 ], [ -2.213092, 53.482272 ], [ -2.213094, 53.482273 ], [ -2.213096, 53.482275 ], [ -2.213097, 53.482276 ], [ -2.213114, 53.482293 ], [ -2.213115, 53.482294 ], [ -2.213132, 53.482315 ], [ -2.213133, 53.482317 ], [ -2.213147, 53.482339 ], [ -2.213148, 53.48234 ], [ -2.213159, 53.482363 ], [ -2.213159, 53.482364 ], [ -2.213199, 53.482463 ], [ -2.213199, 53.482464 ], [ -2.213206, 53.482485 ], [ -2.213207, 53.482486 ], [ -2.213211, 53.482508 ], [ -2.213211, 53.482509 ], [ -2.213221, 53.482588 ], [ -2.213221, 53.482589 ], [ -2.213222, 53.482618 ], [ -2.213222, 53.48262 ], [ -2.213218, 53.482649 ], [ -2.213217, 53.482651 ], [ -2.213208, 53.48268 ], [ -2.213207, 53.482681 ], [ -2.213128, 53.48287 ], [ -2.213127, 53.48287 ], [ -2.213115, 53.482895 ], [ -2.213114, 53.482896 ], [ -2.213101, 53.482915 ], [ -2.2131, 53.482917 ], [ -2.213099, 53.482918 ], [ -2.213097, 53.48292 ], [ -2.213095, 53.482921 ], [ -2.213093, 53.482922 ], [ -2.213091, 53.482923 ], [ -2.213088, 53.482924 ], [ -2.213086, 53.482925 ], [ -2.213083, 53.482926 ], [ -2.21308, 53.482926 ], [ -2.213078, 53.482926 ], [ -2.213073, 53.482927 ], [ -2.213072, 53.482927 ], [ -2.213068, 53.482928 ], [ -2.213066, 53.482928 ], [ -2.213062, 53.482929 ], [ -2.213061, 53.48293 ], [ -2.213057, 53.482931 ], [ -2.213056, 53.482931 ], [ -2.213052, 53.482933 ], [ -2.213003, 53.482954 ], [ -2.212998, 53.482956 ], [ -2.212997, 53.482957 ], [ -2.212994, 53.482959 ], [ -2.212993, 53.482959 ], [ -2.212934, 53.482998 ], [ -2.212932, 53.482999 ], [ -2.212932, 53.483 ], [ -2.212785, 53.483108 ], [ -2.212785, 53.483109 ], [ -2.212782, 53.483111 ], [ -2.212781, 53.483112 ], [ -2.212779, 53.483114 ], [ -2.212778, 53.483115 ], [ -2.212777, 53.483116 ], [ -2.212776, 53.483118 ], [ -2.212774, 53.483119 ], [ -2.212772, 53.483121 ], [ -2.21277, 53.483122 ], [ -2.212767, 53.483123 ], [ -2.212765, 53.483124 ], [ -2.212764, 53.483125 ], [ -2.212761, 53.483126 ], [ -2.212721, 53.483137 ], [ -2.212718, 53.483137 ], [ -2.212676, 53.483146 ], [ -2.212673, 53.483146 ], [ -2.212629, 53.483153 ], [ -2.212628, 53.483153 ], [ -2.21256, 53.48316 ], [ -2.212557, 53.483161 ], [ -2.212554, 53.483161 ], [ -2.212551, 53.483161 ], [ -2.212549, 53.48316 ], [ -2.212546, 53.48316 ], [ -2.212543, 53.483159 ], [ -2.212541, 53.483159 ], [ -2.212538, 53.483158 ], [ -2.212536, 53.483157 ], [ -2.212534, 53.483156 ], [ -2.212532, 53.483154 ], [ -2.212512, 53.483141 ], [ -2.212511, 53.48314 ], [ -2.212509, 53.483139 ], [ -2.212508, 53.483138 ], [ -2.212478, 53.483116 ], [ -2.212477, 53.483116 ], [ -2.212474, 53.483114 ], [ -2.212473, 53.483113 ], [ -2.21247, 53.483111 ], [ -2.212469, 53.483111 ], [ -2.212465, 53.483109 ], [ -2.212464, 53.483109 ], [ -2.21246, 53.483108 ], [ -2.212459, 53.483107 ], [ -2.212455, 53.483106 ], [ -2.212454, 53.483106 ], [ -2.212453, 53.483106 ], [ -2.21245, 53.483105 ], [ -2.212448, 53.483104 ], [ -2.212445, 53.483103 ], [ -2.212443, 53.483102 ], [ -2.212441, 53.483101 ], [ -2.212439, 53.483099 ], [ -2.212438, 53.483098 ], [ -2.212436, 53.483097 ], [ -2.212435, 53.483095 ], [ -2.212435, 53.483094 ], [ -2.212434, 53.483093 ], [ -2.212432, 53.483091 ], [ -2.212431, 53.48309 ], [ -2.212429, 53.483088 ], [ -2.212428, 53.483087 ], [ -2.212425, 53.483085 ], [ -2.212424, 53.483084 ], [ -2.212389, 53.48306 ], [ -2.212388, 53.483059 ], [ -2.212385, 53.483057 ], [ -2.212384, 53.483057 ], [ -2.212381, 53.483055 ], [ -2.21238, 53.483055 ], [ -2.212376, 53.483053 ], [ -2.212375, 53.483053 ], [ -2.212371, 53.483051 ], [ -2.21237, 53.483051 ], [ -2.212366, 53.48305 ], [ -2.212365, 53.48305 ], [ -2.212361, 53.483049 ], [ -2.212359, 53.483048 ], [ -2.212355, 53.483048 ], [ -2.212354, 53.483048 ], [ -2.21235, 53.483047 ], [ -2.212348, 53.483047 ], [ -2.212344, 53.483047 ], [ -2.212342, 53.483047 ], [ -2.212338, 53.483047 ], [ -2.212337, 53.483047 ], [ -2.212332, 53.483048 ], [ -2.212331, 53.483048 ], [ -2.212327, 53.483048 ], [ -2.212325, 53.483049 ], [ -2.212321, 53.483049 ], [ -2.21232, 53.48305 ], [ -2.212316, 53.483051 ], [ -2.212315, 53.483051 ], [ -2.212311, 53.483052 ], [ -2.21231, 53.483053 ], [ -2.212306, 53.483055 ], [ -2.211944, 53.483224 ], [ -2.211941, 53.483225 ], [ -2.211939, 53.483226 ], [ -2.211936, 53.483226 ], [ -2.211934, 53.483227 ], [ -2.211931, 53.483227 ], [ -2.211928, 53.483228 ], [ -2.211925, 53.483228 ], [ -2.211709, 53.483228 ], [ -2.211708, 53.483228 ], [ -2.211707, 53.483228 ], [ -2.211356, 53.483279 ], [ -2.211354, 53.483279 ], [ -2.21131, 53.483285 ], [ -2.211307, 53.483285 ], [ -2.211264, 53.483287 ], [ -2.211261, 53.483287 ], [ -2.211216, 53.483287 ], [ -2.211215, 53.483287 ], [ -2.210939, 53.483279 ], [ -2.210938, 53.483279 ], [ -2.210937, 53.483279 ], [ -2.210436, 53.483329 ], [ -2.210435, 53.483329 ], [ -2.210304, 53.483403 ], [ -2.210304, 53.483404 ], [ -2.210303, 53.483404 ], [ -2.210033, 53.483727 ], [ -2.210032, 53.483727 ], [ -2.209814, 53.483995 ], [ -2.209813, 53.483996 ], [ -2.209794, 53.484017 ], [ -2.209794, 53.484018 ], [ -2.209715, 53.484097 ], [ -2.209714, 53.484098 ], [ -2.209688, 53.48412 ], [ -2.209687, 53.484122 ], [ -2.209658, 53.484143 ], [ -2.209656, 53.484144 ], [ -2.209624, 53.484163 ], [ -2.209623, 53.484164 ], [ -2.209388, 53.48429 ], [ -2.209387, 53.484291 ], [ -2.209175, 53.484441 ], [ -2.209174, 53.484441 ], [ -2.209034, 53.484549 ], [ -2.209033, 53.484549 ], [ -2.208683, 53.484929 ], [ -2.208682, 53.484929 ], [ -2.208657, 53.484953 ], [ -2.208656, 53.484954 ], [ -2.208628, 53.484976 ], [ -2.208627, 53.484977 ], [ -2.208527, 53.485046 ], [ -2.208527, 53.485047 ], [ -2.208505, 53.485061 ], [ -2.208504, 53.485062 ], [ -2.208275, 53.485201 ], [ -2.208274, 53.485202 ], [ -2.208237, 53.485222 ], [ -2.208234, 53.485223 ], [ -2.208193, 53.485241 ], [ -2.208192, 53.485241 ], [ -2.207083, 53.485671 ], [ -2.207082, 53.485671 ], [ -2.207068, 53.485677 ], [ -2.207067, 53.485677 ], [ -2.206648, 53.485827 ], [ -2.206635, 53.485831 ], [ -2.206396, 53.485911 ], [ -2.206395, 53.485911 ], [ -2.206354, 53.485923 ], [ -2.206351, 53.485924 ], [ -2.20631, 53.485933 ], [ -2.206307, 53.485934 ], [ -2.206264, 53.485941 ], [ -2.206261, 53.485941 ], [ -2.206218, 53.485946 ], [ -2.206215, 53.485946 ], [ -2.206171, 53.485948 ], [ -2.206168, 53.485948 ], [ -2.206123, 53.485947 ], [ -2.20612, 53.485947 ], [ -2.206076, 53.485943 ], [ -2.206073, 53.485943 ], [ -2.20603, 53.485937 ], [ -2.206027, 53.485936 ], [ -2.205985, 53.485928 ], [ -2.205982, 53.485927 ], [ -2.205946, 53.485918 ], [ -2.205944, 53.485917 ], [ -2.205941, 53.485916 ], [ -2.205939, 53.485915 ], [ -2.205937, 53.485914 ], [ -2.205935, 53.485912 ], [ -2.205933, 53.485911 ], [ -2.205932, 53.485909 ], [ -2.20593, 53.485908 ], [ -2.20593, 53.485906 ], [ -2.205929, 53.485904 ], [ -2.205928, 53.485903 ], [ -2.205928, 53.485901 ], [ -2.205934, 53.485639 ], [ -2.205907, 53.485427 ], [ -2.205907, 53.485425 ], [ -2.205908, 53.485423 ], [ -2.205908, 53.485421 ], [ -2.205909, 53.48542 ], [ -2.20591, 53.485418 ], [ -2.205911, 53.485416 ], [ -2.205913, 53.485415 ], [ -2.205915, 53.485414 ], [ -2.205917, 53.485412 ], [ -2.205919, 53.485411 ], [ -2.205922, 53.48541 ], [ -2.205924, 53.485409 ], [ -2.205925, 53.485409 ], [ -2.206158, 53.485331 ], [ -2.206159, 53.485331 ], [ -2.206564, 53.485186 ], [ -2.206565, 53.485186 ], [ -2.207046, 53.484999 ], [ -2.207049, 53.484998 ], [ -2.207051, 53.484998 ], [ -2.207054, 53.484997 ], [ -2.207532, 53.484906 ], [ -2.207533, 53.484906 ], [ -2.207537, 53.484905 ], [ -2.207538, 53.484905 ], [ -2.207542, 53.484904 ], [ -2.207543, 53.484904 ], [ -2.207546, 53.484902 ], [ -2.207547, 53.484902 ], [ -2.207551, 53.4849 ], [ -2.208405, 53.484502 ], [ -2.208409, 53.4845 ], [ -2.20841, 53.4845 ], [ -2.208413, 53.484498 ], [ -2.208414, 53.484497 ], [ -2.208417, 53.484495 ], [ -2.208794, 53.484185 ], [ -2.208796, 53.484184 ], [ -2.208798, 53.484183 ], [ -2.208801, 53.484182 ], [ -2.208803, 53.484181 ], [ -2.208806, 53.48418 ], [ -2.208809, 53.484179 ], [ -2.208811, 53.484179 ], [ -2.208814, 53.484178 ], [ -2.208817, 53.484178 ], [ -2.20882, 53.484178 ], [ -2.208823, 53.484178 ], [ -2.208826, 53.484179 ], [ -2.208829, 53.484179 ], [ -2.20883, 53.484179 ], [ -2.208835, 53.48418 ], [ -2.208836, 53.48418 ], [ -2.208841, 53.48418 ], [ -2.208842, 53.48418 ], [ -2.208847, 53.48418 ], [ -2.208848, 53.48418 ], [ -2.208852, 53.484179 ], [ -2.208854, 53.484179 ], [ -2.208858, 53.484179 ], [ -2.20886, 53.484178 ], [ -2.208864, 53.484178 ], [ -2.208865, 53.484177 ], [ -2.208869, 53.484176 ], [ -2.20887, 53.484176 ], [ -2.208874, 53.484174 ], [ -2.208876, 53.484174 ], [ -2.208879, 53.484172 ], [ -2.20888, 53.484172 ], [ -2.208884, 53.48417 ], [ -2.209126, 53.484029 ], [ -2.20913, 53.484026 ], [ -2.209131, 53.484026 ], [ -2.209133, 53.484024 ], [ -2.209134, 53.484023 ], [ -2.209136, 53.484021 ], [ -2.209137, 53.48402 ], [ -2.209139, 53.484018 ], [ -2.20914, 53.484017 ], [ -2.209141, 53.484014 ], [ -2.209142, 53.484013 ], [ -2.209143, 53.484011 ], [ -2.209143, 53.48401 ], [ -2.209144, 53.484007 ], [ -2.209144, 53.484006 ], [ -2.209144, 53.484004 ], [ -2.209144, 53.484003 ], [ -2.209144, 53.484 ], [ -2.209144, 53.483999 ], [ -2.209143, 53.483997 ], [ -2.209143, 53.483996 ], [ -2.209142, 53.483993 ], [ -2.209142, 53.483992 ], [ -2.20914, 53.48399 ], [ -2.20914, 53.483989 ], [ -2.209138, 53.483987 ], [ -2.209137, 53.483986 ], [ -2.209135, 53.483984 ], [ -2.209134, 53.483983 ], [ -2.209131, 53.483981 ], [ -2.20913, 53.48398 ], [ -2.209127, 53.483978 ], [ -2.208868, 53.483821 ], [ -2.208866, 53.483819 ], [ -2.208864, 53.483818 ], [ -2.208862, 53.483816 ], [ -2.208861, 53.483815 ], [ -2.20886, 53.483813 ], [ -2.208859, 53.483811 ], [ -2.208859, 53.483809 ], [ -2.208859, 53.483807 ], [ -2.208859, 53.483806 ], [ -2.20886, 53.483804 ], [ -2.208861, 53.483802 ], [ -2.208862, 53.4838 ], [ -2.208863, 53.483799 ], [ -2.208865, 53.483797 ], [ -2.208867, 53.483796 ], [ -2.208869, 53.483795 ], [ -2.208884, 53.483786 ], [ -2.208886, 53.483785 ], [ -2.208889, 53.483784 ], [ -2.208891, 53.483784 ], [ -2.208894, 53.483783 ], [ -2.208897, 53.483782 ], [ -2.208899, 53.483782 ], [ -2.208902, 53.483782 ], [ -2.208905, 53.483782 ], [ -2.208908, 53.483782 ], [ -2.208911, 53.483782 ], [ -2.208914, 53.483783 ], [ -2.208916, 53.483783 ], [ -2.208919, 53.483784 ], [ -2.208921, 53.483785 ], [ -2.208924, 53.483786 ], [ -2.208926, 53.483787 ], [ -2.20902, 53.483844 ], [ -2.209024, 53.483846 ], [ -2.209025, 53.483847 ], [ -2.209028, 53.483848 ], [ -2.20903, 53.483849 ], [ -2.209032, 53.48385 ], [ -2.209034, 53.483851 ], [ -2.209036, 53.483852 ], [ -2.209037, 53.483852 ], [ -2.20904, 53.483854 ], [ -2.209041, 53.483855 ], [ -2.209045, 53.483857 ], [ -2.209046, 53.483857 ], [ -2.209049, 53.483859 ], [ -2.209051, 53.483859 ], [ -2.209055, 53.48386 ], [ -2.209056, 53.483861 ], [ -2.20906, 53.483862 ], [ -2.209061, 53.483862 ], [ -2.209066, 53.483863 ], [ -2.209067, 53.483863 ], [ -2.209071, 53.483863 ], [ -2.209073, 53.483864 ], [ -2.209077, 53.483864 ], [ -2.209079, 53.483864 ], [ -2.209084, 53.483864 ], [ -2.209355, 53.483856 ], [ -2.209386, 53.483855 ], [ -2.209387, 53.483855 ], [ -2.209391, 53.483855 ], [ -2.209393, 53.483854 ], [ -2.209397, 53.483854 ], [ -2.209398, 53.483854 ], [ -2.209403, 53.483853 ], [ -2.209404, 53.483853 ], [ -2.209408, 53.483852 ], [ -2.209409, 53.483851 ], [ -2.209413, 53.48385 ], [ -2.209414, 53.48385 ], [ -2.209418, 53.483848 ], [ -2.209419, 53.483848 ], [ -2.209423, 53.483846 ], [ -2.209424, 53.483845 ], [ -2.209427, 53.483844 ], [ -2.209428, 53.483843 ], [ -2.209431, 53.483841 ], [ -2.209432, 53.48384 ], [ -2.209434, 53.483838 ], [ -2.209435, 53.483837 ], [ -2.209437, 53.483835 ], [ -2.209437, 53.483834 ], [ -2.209703, 53.483508 ], [ -2.209703, 53.483507 ], [ -2.209705, 53.483505 ], [ -2.209706, 53.483504 ], [ -2.209707, 53.483502 ], [ -2.209707, 53.483501 ], [ -2.209708, 53.483498 ], [ -2.209709, 53.483497 ], [ -2.209709, 53.483495 ], [ -2.209709, 53.483494 ], [ -2.209709, 53.483491 ], [ -2.209709, 53.48349 ], [ -2.209709, 53.483488 ], [ -2.209709, 53.483487 ], [ -2.209708, 53.483484 ], [ -2.209707, 53.483483 ], [ -2.209706, 53.483481 ], [ -2.209705, 53.483479 ], [ -2.209705, 53.483478 ], [ -2.209704, 53.483476 ], [ -2.209704, 53.483474 ], [ -2.209704, 53.483472 ], [ -2.209704, 53.483471 ], [ -2.209705, 53.483469 ], [ -2.209706, 53.483467 ], [ -2.209707, 53.483466 ], [ -2.209708, 53.483464 ], [ -2.20971, 53.483463 ], [ -2.209712, 53.483461 ], [ -2.209714, 53.48346 ], [ -2.209716, 53.483459 ], [ -2.20972, 53.483457 ], [ -2.209721, 53.483457 ], [ -2.209724, 53.483455 ], [ -2.209725, 53.483454 ], [ -2.209728, 53.483453 ], [ -2.209729, 53.483452 ], [ -2.209732, 53.48345 ], [ -2.209733, 53.483449 ], [ -2.209735, 53.483447 ], [ -2.209736, 53.483446 ], [ -2.209738, 53.483443 ], [ -2.209972, 53.48312 ], [ -2.209974, 53.483117 ], [ -2.209975, 53.483116 ], [ -2.209976, 53.483114 ], [ -2.209976, 53.483113 ], [ -2.209977, 53.48311 ], [ -2.209977, 53.483107 ], [ -2.209977, 53.483105 ], [ -2.209978, 53.483103 ], [ -2.209979, 53.483102 ], [ -2.20998, 53.4831 ], [ -2.209981, 53.483098 ], [ -2.209982, 53.483097 ], [ -2.209984, 53.483095 ], [ -2.209986, 53.483094 ], [ -2.209988, 53.483093 ], [ -2.209991, 53.483092 ], [ -2.209993, 53.483091 ], [ -2.209996, 53.48309 ], [ -2.209999, 53.48309 ], [ -2.210002, 53.483089 ], [ -2.210004, 53.483089 ], [ -2.210007, 53.483089 ], [ -2.210131, 53.483089 ], [ -2.210132, 53.483089 ], [ -2.21016, 53.483089 ], [ -2.210165, 53.483089 ], [ -2.210167, 53.483089 ], [ -2.210171, 53.483088 ], [ -2.210172, 53.483088 ], [ -2.210177, 53.483088 ], [ -2.210178, 53.483087 ], [ -2.210182, 53.483086 ], [ -2.210184, 53.483086 ], [ -2.210188, 53.483085 ], [ -2.210189, 53.483084 ], [ -2.210193, 53.483083 ], [ -2.210194, 53.483083 ], [ -2.210198, 53.483081 ], [ -2.210199, 53.48308 ], [ -2.210202, 53.483079 ], [ -2.210203, 53.483078 ], [ -2.210206, 53.483076 ], [ -2.210207, 53.483075 ], [ -2.21021, 53.483073 ], [ -2.210212, 53.483071 ], [ -2.210214, 53.483069 ], [ -2.210216, 53.483068 ], [ -2.210218, 53.483067 ], [ -2.21022, 53.483066 ], [ -2.210223, 53.483065 ], [ -2.210225, 53.483064 ], [ -2.210228, 53.483063 ], [ -2.210231, 53.483063 ], [ -2.210233, 53.483062 ], [ -2.21086, 53.483002 ], [ -2.210861, 53.483001 ], [ -2.210866, 53.483001 ], [ -2.210867, 53.483001 ], [ -2.210872, 53.483 ], [ -2.210873, 53.482999 ], [ -2.210877, 53.482998 ], [ -2.210879, 53.482998 ], [ -2.210883, 53.482997 ], [ -2.210884, 53.482996 ], [ -2.210886, 53.482995 ], [ -2.210889, 53.482995 ], [ -2.210891, 53.482994 ], [ -2.210894, 53.482993 ], [ -2.210897, 53.482993 ], [ -2.2109, 53.482993 ], [ -2.210903, 53.482993 ], [ -2.21123, 53.48301 ], [ -2.211231, 53.48301 ], [ -2.211236, 53.48301 ], [ -2.211237, 53.48301 ], [ -2.211241, 53.48301 ], [ -2.211243, 53.48301 ], [ -2.211247, 53.483009 ], [ -2.211248, 53.483009 ], [ -2.211252, 53.483009 ], [ -2.211254, 53.483008 ], [ -2.211258, 53.483007 ], [ -2.211259, 53.483007 ], [ -2.211263, 53.483006 ], [ -2.211264, 53.483006 ], [ -2.211268, 53.483004 ], [ -2.211269, 53.483004 ], [ -2.211273, 53.483002 ], [ -2.211543, 53.482876 ], [ -2.211547, 53.482874 ], [ -2.211548, 53.482874 ], [ -2.211551, 53.482872 ], [ -2.211552, 53.482871 ], [ -2.211555, 53.482869 ], [ -2.211556, 53.482868 ], [ -2.211558, 53.482866 ], [ -2.211559, 53.482865 ], [ -2.211561, 53.482863 ], [ -2.211561, 53.482862 ], [ -2.211563, 53.48286 ], [ -2.211563, 53.482859 ], [ -2.211565, 53.482856 ], [ -2.211566, 53.482853 ], [ -2.211566, 53.482852 ], [ -2.211566, 53.482849 ], [ -2.211566, 53.482846 ], [ -2.211566, 53.482845 ], [ -2.211566, 53.482843 ], [ -2.211565, 53.482842 ], [ -2.211564, 53.482839 ], [ -2.211564, 53.482838 ], [ -2.211563, 53.482836 ], [ -2.211562, 53.482835 ], [ -2.21156, 53.482832 ], [ -2.211558, 53.482829 ], [ -2.211557, 53.482829 ], [ -2.211554, 53.482827 ], [ -2.211553, 53.482826 ], [ -2.211551, 53.482824 ], [ -2.21155, 53.482823 ], [ -2.211546, 53.482821 ], [ -2.211545, 53.482821 ], [ -2.211542, 53.482819 ], [ -2.211541, 53.482819 ], [ -2.211537, 53.482817 ], [ -2.211536, 53.482817 ], [ -2.211532, 53.482816 ], [ -2.21153, 53.482815 ], [ -2.211526, 53.482814 ], [ -2.211525, 53.482814 ], [ -2.211521, 53.482813 ], [ -2.211519, 53.482813 ], [ -2.211515, 53.482812 ], [ -2.211514, 53.482812 ], [ -2.211509, 53.482812 ], [ -2.211508, 53.482812 ], [ -2.210924, 53.482798 ], [ -2.210923, 53.482798 ], [ -2.21092, 53.482798 ], [ -2.210917, 53.482798 ], [ -2.210913, 53.482798 ], [ -2.21091, 53.482797 ], [ -2.210907, 53.482797 ], [ -2.210904, 53.482796 ], [ -2.210903, 53.482795 ], [ -2.210902, 53.482795 ], [ -2.210898, 53.482794 ], [ -2.210896, 53.482793 ], [ -2.210892, 53.482793 ], [ -2.210891, 53.482792 ], [ -2.210886, 53.482792 ], [ -2.210885, 53.482792 ], [ -2.21088, 53.482791 ], [ -2.210879, 53.482791 ], [ -2.210506, 53.482775 ], [ -2.210503, 53.482774 ], [ -2.2105, 53.482774 ], [ -2.210497, 53.482774 ], [ -2.210495, 53.482773 ], [ -2.210492, 53.482772 ], [ -2.21049, 53.482771 ], [ -2.210488, 53.48277 ], [ -2.210486, 53.482769 ], [ -2.210484, 53.482767 ], [ -2.210482, 53.482766 ], [ -2.210481, 53.482764 ], [ -2.21048, 53.482763 ], [ -2.210479, 53.482761 ], [ -2.210478, 53.482759 ], [ -2.210478, 53.482758 ], [ -2.210478, 53.482756 ], [ -2.210478, 53.482754 ], [ -2.210479, 53.482752 ], [ -2.21048, 53.482751 ], [ -2.210481, 53.482749 ], [ -2.210482, 53.482748 ], [ -2.210484, 53.482746 ], [ -2.210486, 53.482745 ], [ -2.210488, 53.482744 ], [ -2.21049, 53.482742 ], [ -2.210492, 53.482741 ], [ -2.210495, 53.482741 ], [ -2.210498, 53.48274 ], [ -2.2105, 53.482739 ], [ -2.210503, 53.482739 ], [ -2.210829, 53.482706 ], [ -2.210831, 53.482706 ], [ -2.210881, 53.482703 ], [ -2.210884, 53.482703 ], [ -2.210934, 53.482703 ], [ -2.210935, 53.482703 ], [ -2.211193, 53.482711 ], [ -2.211194, 53.482711 ], [ -2.211195, 53.48271 ], [ -2.211534, 53.482661 ], [ -2.211536, 53.482661 ], [ -2.21159, 53.482655 ], [ -2.211594, 53.482654 ], [ -2.211649, 53.482652 ], [ -2.211651, 53.482652 ], [ -2.211889, 53.482652 ], [ -2.21189, 53.482652 ], [ -2.211891, 53.482652 ], [ -2.212081, 53.482629 ], [ -2.212081, 53.482628 ], [ -2.212092, 53.482627 ], [ -2.212242, 53.482611 ], [ -2.212243, 53.48261 ], [ -2.212253, 53.482585 ], [ -2.212252, 53.482575 ], [ -2.212252, 53.482574 ], [ -2.212241, 53.482546 ], [ -2.21224, 53.482545 ], [ -2.212227, 53.482533 ], [ -2.212226, 53.482533 ], [ -2.211859, 53.482377 ], [ -2.211859, 53.482376 ], [ -2.211491, 53.482265 ], [ -2.211489, 53.482264 ], [ -2.211486, 53.482263 ], [ -2.211484, 53.482261 ], [ -2.211482, 53.48226 ], [ -2.21148, 53.482259 ], [ -2.211478, 53.482257 ], [ -2.211477, 53.482255 ], [ -2.211476, 53.482254 ], [ -2.211475, 53.482252 ], [ -2.211475, 53.48225 ], [ -2.211475, 53.482248 ], [ -2.211475, 53.482246 ], [ -2.211476, 53.482245 ], [ -2.211476, 53.482243 ], [ -2.211481, 53.482235 ], [ -2.211481, 53.482234 ], [ -2.211483, 53.482231 ], [ -2.211484, 53.482228 ], [ -2.211484, 53.482227 ], [ -2.211484, 53.482224 ], [ -2.211484, 53.482221 ], [ -2.211484, 53.48222 ], [ -2.211483, 53.482217 ], [ -2.211483, 53.482216 ], [ -2.211482, 53.482214 ], [ -2.211482, 53.482213 ], [ -2.21148, 53.482211 ], [ -2.21148, 53.48221 ], [ -2.211478, 53.482207 ], [ -2.211475, 53.482204 ], [ -2.211475, 53.482203 ], [ -2.211472, 53.482201 ], [ -2.211471, 53.482201 ], [ -2.211468, 53.482199 ], [ -2.211467, 53.482198 ], [ -2.211464, 53.482196 ], [ -2.211463, 53.482196 ], [ -2.211459, 53.482194 ], [ -2.211458, 53.482193 ], [ -2.211454, 53.482192 ], [ -2.211453, 53.482192 ], [ -2.211449, 53.48219 ], [ -2.211448, 53.48219 ], [ -2.211443, 53.482189 ], [ -2.211301, 53.482161 ], [ -2.211296, 53.48216 ], [ -2.211294, 53.48216 ], [ -2.21129, 53.482159 ], [ -2.211289, 53.482159 ], [ -2.211284, 53.482159 ], [ -2.211283, 53.482159 ], [ -2.211278, 53.482159 ], [ -2.211277, 53.482159 ], [ -2.211273, 53.48216 ], [ -2.211271, 53.48216 ], [ -2.211267, 53.48216 ], [ -2.211265, 53.48216 ], [ -2.211261, 53.482161 ], [ -2.21126, 53.482162 ], [ -2.211256, 53.482163 ], [ -2.211254, 53.482163 ], [ -2.211251, 53.482164 ], [ -2.211249, 53.482165 ], [ -2.211246, 53.482166 ], [ -2.211244, 53.482167 ], [ -2.211241, 53.482169 ], [ -2.21124, 53.482169 ], [ -2.211237, 53.482171 ], [ -2.211236, 53.482172 ], [ -2.211233, 53.482174 ], [ -2.211232, 53.482175 ], [ -2.21123, 53.482177 ], [ -2.211229, 53.482178 ], [ -2.211227, 53.48218 ], [ -2.211227, 53.482181 ], [ -2.211225, 53.482183 ], [ -2.211225, 53.482184 ], [ -2.211215, 53.482201 ], [ -2.211214, 53.482203 ], [ -2.211213, 53.482204 ], [ -2.211211, 53.482206 ], [ -2.211209, 53.482207 ], [ -2.211207, 53.482209 ], [ -2.211205, 53.48221 ], [ -2.211202, 53.482211 ], [ -2.211199, 53.482212 ], [ -2.211197, 53.482212 ], [ -2.211194, 53.482213 ], [ -2.211191, 53.482213 ], [ -2.211188, 53.482213 ], [ -2.211185, 53.482213 ], [ -2.211182, 53.482213 ], [ -2.211179, 53.482213 ], [ -2.211086, 53.482198 ], [ -2.211085, 53.482198 ], [ -2.211047, 53.482191 ], [ -2.211044, 53.48219 ], [ -2.211007, 53.482181 ], [ -2.211005, 53.48218 ], [ -2.210969, 53.482169 ], [ -2.210968, 53.482169 ], [ -2.210679, 53.482069 ], [ -2.210678, 53.482069 ], [ -2.210639, 53.482054 ], [ -2.210637, 53.482053 ], [ -2.210601, 53.482036 ], [ -2.210599, 53.482035 ], [ -2.210567, 53.482016 ], [ -2.210565, 53.482014 ], [ -2.210536, 53.481994 ], [ -2.210534, 53.481992 ], [ -2.210508, 53.48197 ], [ -2.210507, 53.481968 ], [ -2.210485, 53.481944 ], [ -2.210484, 53.481943 ], [ -2.210466, 53.481917 ], [ -2.210466, 53.481916 ], [ -2.210436, 53.481867 ], [ -2.210436, 53.481866 ], [ -2.21042, 53.481833 ], [ -2.210419, 53.481832 ], [ -2.21039, 53.481755 ], [ -2.21039, 53.481753 ], [ -2.210389, 53.481751 ], [ -2.210389, 53.481749 ], [ -2.21039, 53.481747 ], [ -2.21039, 53.481746 ], [ -2.210391, 53.481744 ], [ -2.210393, 53.481742 ], [ -2.210394, 53.481741 ], [ -2.210396, 53.481739 ], [ -2.210398, 53.481738 ], [ -2.2104, 53.481737 ], [ -2.210402, 53.481736 ], [ -2.210405, 53.481735 ], [ -2.211544, 53.481364 ], [ -2.211544, 53.481363 ], [ -2.211548, 53.481362 ], [ -2.211549, 53.481361 ], [ -2.211553, 53.48136 ], [ -2.211554, 53.481359 ], [ -2.211557, 53.481358 ], [ -2.211558, 53.481357 ], [ -2.21156, 53.481356 ], [ -2.211562, 53.481355 ], [ -2.211565, 53.481354 ], [ -2.211567, 53.481353 ], [ -2.21157, 53.481353 ], [ -2.211573, 53.481352 ], [ -2.211576, 53.481352 ], [ -2.211579, 53.481352 ], [ -2.211581, 53.481352 ], [ -2.211586, 53.481352 ], [ -2.211587, 53.481352 ], [ -2.211592, 53.481352 ], [ -2.211593, 53.481352 ], [ -2.211598, 53.481351 ], [ -2.211599, 53.481351 ], [ -2.211603, 53.481351 ], [ -2.211605, 53.48135 ], [ -2.211609, 53.481349 ], [ -2.211611, 53.481349 ], [ -2.211615, 53.481348 ], [ -2.211616, 53.481348 ], [ -2.212197, 53.481163 ], [ -2.212198, 53.481163 ], [ -2.212202, 53.481161 ], [ -2.212203, 53.481161 ], [ -2.212207, 53.481159 ], [ -2.212208, 53.481158 ], [ -2.212211, 53.481157 ], [ -2.212212, 53.481156 ], [ -2.212215, 53.481154 ], [ -2.212216, 53.481153 ], [ -2.212219, 53.481151 ], [ -2.212221, 53.48115 ], [ -2.212223, 53.481149 ], [ -2.212225, 53.481147 ], [ -2.212227, 53.481147 ], [ -2.21223, 53.481146 ], [ -2.212232, 53.481145 ], [ -2.212235, 53.481144 ], [ -2.212238, 53.481144 ], [ -2.212241, 53.481144 ], [ -2.212243, 53.481144 ], [ -2.212246, 53.481144 ], [ -2.212249, 53.481144 ], [ -2.212251, 53.481144 ], [ -2.212255, 53.481145 ], [ -2.212257, 53.481145 ], [ -2.212261, 53.481145 ], [ -2.212263, 53.481145 ], [ -2.212267, 53.481145 ], [ -2.212269, 53.481145 ], [ -2.212273, 53.481144 ], [ -2.212274, 53.481144 ], [ -2.212279, 53.481144 ], [ -2.21228, 53.481143 ], [ -2.212284, 53.481142 ], [ -2.212285, 53.481142 ], [ -2.212289, 53.481141 ], [ -2.212291, 53.481141 ], [ -2.212295, 53.481139 ], [ -2.212296, 53.481139 ], [ -2.212299, 53.481137 ], [ -2.2123, 53.481137 ], [ -2.212304, 53.481135 ], [ -2.212305, 53.481134 ], [ -2.212308, 53.481132 ], [ -2.212406, 53.481062 ], [ -2.21241, 53.481059 ], [ -2.212413, 53.481056 ], [ -2.212415, 53.481053 ], [ -2.212416, 53.481052 ], [ -2.212418, 53.48105 ], [ -2.212418, 53.481049 ], [ -2.212419, 53.481046 ], [ -2.212419, 53.481045 ], [ -2.212436, 53.480991 ], [ -2.212436, 53.48099 ], [ -2.212437, 53.480987 ], [ -2.212437, 53.480984 ], [ -2.212437, 53.480983 ], [ -2.212437, 53.48098 ], [ -2.212436, 53.480977 ], [ -2.212436, 53.480976 ], [ -2.212435, 53.480974 ], [ -2.212434, 53.480973 ], [ -2.212433, 53.48097 ], [ -2.212432, 53.480969 ], [ -2.21243, 53.480967 ], [ -2.212429, 53.480966 ], [ -2.212427, 53.480964 ], [ -2.212426, 53.480963 ], [ -2.212423, 53.480961 ], [ -2.212423, 53.48096 ], [ -2.21242, 53.480959 ], [ -2.212418, 53.480958 ], [ -2.212415, 53.480956 ], [ -2.212414, 53.480956 ], [ -2.21241, 53.480954 ], [ -2.212409, 53.480954 ], [ -2.212056, 53.480817 ], [ -2.212053, 53.480816 ], [ -2.212051, 53.480815 ], [ -2.212049, 53.480813 ], [ -2.212047, 53.480812 ], [ -2.212046, 53.48081 ], [ -2.212044, 53.480809 ], [ -2.212043, 53.480807 ], [ -2.212043, 53.480805 ], [ -2.212042, 53.480803 ], [ -2.212042, 53.480802 ], [ -2.212042, 53.4808 ], [ -2.212043, 53.480798 ], [ -2.212044, 53.480796 ], [ -2.212081, 53.48073 ], [ -2.212135, 53.480542 ], [ -2.212135, 53.480541 ], [ -2.212145, 53.480514 ], [ -2.212146, 53.480512 ], [ -2.21216, 53.480486 ], [ -2.212161, 53.480485 ], [ -2.21218, 53.480459 ], [ -2.212181, 53.480459 ], [ -2.2123, 53.480319 ], [ -2.212301, 53.480319 ], [ -2.212324, 53.480295 ], [ -2.212326, 53.480293 ], [ -2.212352, 53.480271 ], [ -2.212354, 53.48027 ], [ -2.212384, 53.48025 ], [ -2.212386, 53.480249 ], [ -2.21242, 53.48023 ], [ -2.212421, 53.480229 ], [ -2.21266, 53.48011 ], [ -2.212661, 53.480109 ], [ -2.212703, 53.480091 ], [ -2.212706, 53.48009 ], [ -2.21275, 53.480074 ], [ -2.212753, 53.480073 ], [ -2.212801, 53.480061 ], [ -2.212802, 53.48006 ], [ -2.213161, 53.479981 ], [ -2.213162, 53.47998 ], [ -2.213202, 53.479973 ], [ -2.213205, 53.479972 ], [ -2.213246, 53.479967 ], [ -2.213247, 53.479967 ], [ -2.213773, 53.479911 ], [ -2.213774, 53.479911 ], [ -2.213775, 53.479911 ], [ -2.213795, 53.479907 ], [ -2.213796, 53.479906 ], [ -2.213104, 53.479567 ], [ -2.213103, 53.479567 ], [ -2.212433, 53.479271 ], [ -2.212422, 53.479266 ], [ -2.212421, 53.479266 ], [ -2.212252, 53.479186 ], [ -2.212251, 53.479185 ], [ -2.212211, 53.479164 ], [ -2.212209, 53.479163 ], [ -2.212173, 53.479139 ], [ -2.212172, 53.479139 ], [ -2.212093, 53.479079 ], [ -2.212092, 53.479079 ], [ -2.212067, 53.479057 ], [ -2.212065, 53.479056 ], [ -2.212043, 53.479034 ], [ -2.212042, 53.479032 ], [ -2.212024, 53.479009 ], [ -2.212023, 53.479007 ], [ -2.212008, 53.478983 ], [ -2.212008, 53.478982 ], [ -2.211968, 53.478903 ], [ -2.211968, 53.478902 ], [ -2.211957, 53.478877 ], [ -2.211957, 53.478875 ], [ -2.211951, 53.47885 ], [ -2.21195, 53.478849 ], [ -2.211948, 53.478823 ], [ -2.211948, 53.478822 ], [ -2.21195, 53.478796 ], [ -2.21195, 53.478795 ], [ -2.21196, 53.478726 ], [ -2.21196, 53.478725 ], [ -2.211966, 53.478697 ], [ -2.211967, 53.478695 ], [ -2.211978, 53.478667 ], [ -2.211979, 53.478665 ], [ -2.211995, 53.478639 ], [ -2.211997, 53.478637 ], [ -2.212017, 53.478612 ], [ -2.212019, 53.47861 ], [ -2.212044, 53.478586 ], [ -2.212046, 53.478584 ], [ -2.212075, 53.478562 ], [ -2.212077, 53.478561 ], [ -2.212111, 53.47854 ], [ -2.212112, 53.478539 ], [ -2.212201, 53.47849 ], [ -2.212201, 53.478489 ], [ -2.212207, 53.478487 ], [ -2.212207, 53.478486 ], [ -2.212336, 53.478417 ], [ -2.212337, 53.478416 ], [ -2.21237, 53.4784 ], [ -2.212372, 53.478399 ], [ -2.212406, 53.478386 ], [ -2.212408, 53.478385 ], [ -2.212444, 53.478373 ], [ -2.212446, 53.478372 ], [ -2.212484, 53.478362 ], [ -2.212487, 53.478362 ], [ -2.212526, 53.478354 ], [ -2.212527, 53.478353 ], [ -2.212866, 53.478295 ], [ -2.2138, 53.478107 ], [ -2.213801, 53.478106 ], [ -2.213802, 53.478106 ], [ -2.21461, 53.47783 ], [ -2.214611, 53.47783 ], [ -2.214629, 53.477824 ], [ -2.215199, 53.477649 ], [ -2.2152, 53.477649 ], [ -2.2152, 53.477648 ], [ -2.215233, 53.477627 ], [ -2.215234, 53.477626 ], [ -2.215229, 53.477576 ], [ -2.215172, 53.477318 ], [ -2.215172, 53.477317 ], [ -2.215169, 53.477297 ], [ -2.215169, 53.477296 ], [ -2.215139, 53.476987 ], [ -2.215139, 53.476986 ], [ -2.215138, 53.476965 ], [ -2.215138, 53.476964 ], [ -2.21514, 53.476943 ], [ -2.21517, 53.476753 ], [ -2.215176, 53.476727 ], [ -2.215177, 53.476725 ], [ -2.215187, 53.4767 ], [ -2.215188, 53.476698 ], [ -2.215202, 53.476674 ], [ -2.215203, 53.476672 ], [ -2.215221, 53.476648 ], [ -2.215222, 53.476648 ], [ -2.215481, 53.476348 ], [ -2.215482, 53.476348 ], [ -2.215506, 53.476323 ], [ -2.215507, 53.476322 ], [ -2.215535, 53.476299 ], [ -2.215536, 53.476299 ], [ -2.215725, 53.476159 ], [ -2.215726, 53.476159 ], [ -2.21574, 53.476148 ], [ -2.215741, 53.476148 ], [ -2.21592, 53.476029 ], [ -2.215921, 53.476028 ], [ -2.215954, 53.476008 ], [ -2.215956, 53.476007 ], [ -2.215991, 53.47599 ], [ -2.215994, 53.475989 ], [ -2.216032, 53.475973 ], [ -2.216034, 53.475973 ], [ -2.216075, 53.47596 ], [ -2.216077, 53.475959 ], [ -2.21612, 53.475949 ], [ -2.216122, 53.475948 ], [ -2.216167, 53.47594 ], [ -2.216168, 53.47594 ], [ -2.216307, 53.47592 ], [ -2.216308, 53.47592 ], [ -2.216352, 53.475915 ], [ -2.216355, 53.475915 ], [ -2.216398, 53.475913 ], [ -2.216401, 53.475913 ], [ -2.216445, 53.475913 ], [ -2.216448, 53.475913 ], [ -2.216491, 53.475916 ], [ -2.216494, 53.475916 ], [ -2.216536, 53.475921 ], [ -2.216539, 53.475921 ], [ -2.216581, 53.475929 ], [ -2.216584, 53.47593 ], [ -2.216624, 53.475939 ], [ -2.216627, 53.47594 ], [ -2.216665, 53.475952 ], [ -2.216668, 53.475953 ], [ -2.216705, 53.475968 ], [ -2.216706, 53.475968 ], [ -2.216759, 53.475991 ], [ -2.216759, 53.475992 ], [ -2.21676, 53.475992 ], [ -2.217607, 53.476043 ], [ -2.217608, 53.476043 ], [ -2.217952, 53.476054 ], [ -2.217955, 53.476055 ], [ -2.217958, 53.476055 ], [ -2.217961, 53.476055 ], [ -2.217963, 53.476056 ], [ -2.217966, 53.476057 ], [ -2.217968, 53.476058 ], [ -2.21797, 53.476059 ], [ -2.217973, 53.47606 ], [ -2.217974, 53.476061 ], [ -2.217976, 53.476063 ], [ -2.217977, 53.476064 ], [ -2.218081, 53.476182 ], [ -2.218082, 53.476183 ], [ -2.218083, 53.476185 ], [ -2.218084, 53.476187 ], [ -2.218158, 53.476411 ], [ -2.218158, 53.476413 ], [ -2.218187, 53.476618 ], [ -2.218187, 53.47662 ], [ -2.218187, 53.476622 ], [ -2.218187, 53.476623 ], [ -2.218186, 53.476625 ], [ -2.218185, 53.476627 ], [ -2.218183, 53.476628 ], [ -2.218182, 53.47663 ], [ -2.21818, 53.476631 ], [ -2.218178, 53.476633 ], [ -2.218176, 53.476634 ], [ -2.218174, 53.476635 ], [ -2.218171, 53.476636 ], [ -2.218168, 53.476636 ], [ -2.218166, 53.476637 ], [ -2.218163, 53.476637 ], [ -2.21816, 53.476638 ], [ -2.218157, 53.476638 ], [ -2.218154, 53.476638 ], [ -2.218141, 53.476637 ], [ -2.21814, 53.476637 ], [ -2.217544, 53.476617 ], [ -2.217543, 53.476617 ] ] ] } },
{ "type": "Feature", "properties": { "part": "Canal-side promenade" }, "geometry": { "type": "Polygon", "coordinates": [ [ [ -2.205742, 53.48537 ], [ -2.205852, 53.48543 ], [ -2.205862, 53.485437 ], [ -2.205872, 53.485444 ], [ -2.206017, 53.48557 ], [ -2.206448, 53.485864 ], [ -2.206741, 53.48603 ], [ -2.206981, 53.486155 ], [ -2.207121, 53.486207 ], [ -2.207235, 53.486234 ], [ -2.20739, 53.486263 ], [ -2.207489, 53.486281 ], [ -2.207607, 53.48629 ], [ -2.207738, 53.486299 ], [ -2.207862, 53.486299 ], [ -2.208005, 53.48629 ], [ -2.208009, 53.486289 ], [ -2.208202, 53.48628 ], [ -2.208457, 53.486251 ], [ -2.20888, 53.486173 ], [ -2.208888, 53.486171 ], [ -2.209438, 53.486091 ], [ -2.209443, 53.486091 ], [ -2.209927, 53.486031 ], [ -2.210144, 53.485994 ], [ -2.211191, 53.485988 ], [ -2.211196, 53.485988 ], [ -2.211202, 53.485987 ], [ -2.211208, 53.485986 ], [ -2.211213, 53.485985 ], [ -2.211218, 53.485984 ], [ -2.211223, 53.485982 ], [ -2.211228, 53.48598 ], [ -2.211232, 53.485978 ], [ -2.211236, 53.485975 ], [ -2.21124, 53.485972 ], [ -2.211243, 53.485969 ], [ -2.211245, 53.485966 ], [ -2.211247, 53.485963 ], [ -2.211249, 53.48596 ], [ -2.21125, 53.485956 ], [ -2.21125, 53.485954 ], [ -2.211271, 53.485966 ], [ -2.211275, 53.485969 ], [ -2.21128, 53.485971 ], [ -2.211285, 53.485972 ], [ -2.21129, 53.485974 ], [ -2.211296, 53.485975 ], [ -2.211301, 53.485976 ], [ -2.211307, 53.485977 ], [ -2.211313, 53.485977 ], [ -2.211319, 53.485977 ], [ -2.211552, 53.485966 ], [ -2.211559, 53.485965 ], [ -2.211565, 53.485964 ], [ -2.211991, 53.485883 ], [ -2.211992, 53.485883 ], [ -2.212043, 53.485873 ], [ -2.212046, 53.485872 ], [ -2.212191, 53.485838 ], [ -2.212196, 53.485837 ], [ -2.212202, 53.485835 ], [ -2.212206, 53.485833 ], [ -2.212211, 53.485831 ], [ -2.212215, 53.485828 ], [ -2.212219, 53.485825 ], [ -2.212222, 53.485822 ], [ -2.212224, 53.485819 ], [ -2.212226, 53.485816 ], [ -2.212228, 53.485812 ], [ -2.212229, 53.485809 ], [ -2.212229, 53.485807 ], [ -2.212254, 53.485799 ], [ -2.212469, 53.485721 ], [ -2.212484, 53.485716 ], [ -2.21273, 53.48565 ], [ -2.212732, 53.485649 ], [ -2.212733, 53.48565 ], [ -2.212738, 53.485652 ], [ -2.212743, 53.485654 ], [ -2.212748, 53.485656 ], [ -2.212754, 53.485657 ], [ -2.21276, 53.485658 ], [ -2.212766, 53.485659 ], [ -2.212772, 53.485659 ], [ -2.212778, 53.485659 ], [ -2.212784, 53.485658 ], [ -2.21279, 53.485658 ], [ -2.212796, 53.485656 ], [ -2.212801, 53.485655 ], [ -2.212806, 53.485653 ], [ -2.212811, 53.485651 ], [ -2.212816, 53.485648 ], [ -2.213063, 53.485501 ], [ -2.213066, 53.485499 ], [ -2.21307, 53.485496 ], [ -2.213073, 53.485493 ], [ -2.213075, 53.48549 ], [ -2.213075, 53.48549 ], [ -2.213115, 53.485471 ], [ -2.213116, 53.485472 ], [ -2.213121, 53.485474 ], [ -2.213126, 53.485476 ], [ -2.213131, 53.485477 ], [ -2.213137, 53.485478 ], [ -2.213142, 53.485479 ], [ -2.213148, 53.48548 ], [ -2.213154, 53.48548 ], [ -2.21316, 53.48548 ], [ -2.213166, 53.485479 ], [ -2.213172, 53.485478 ], [ -2.213177, 53.485477 ], [ -2.213182, 53.485476 ], [ -2.213187, 53.485474 ], [ -2.213192, 53.485472 ], [ -2.213197, 53.485469 ], [ -2.214113, 53.484923 ], [ -2.214117, 53.484921 ], [ -2.21412, 53.484918 ], [ -2.214123, 53.484915 ], [ -2.214126, 53.484912 ], [ -2.214128, 53.484908 ], [ -2.214129, 53.484905 ], [ -2.21413, 53.484901 ], [ -2.21413, 53.484898 ], [ -2.21413, 53.484894 ], [ -2.214129, 53.484891 ], [ -2.214128, 53.484888 ], [ -2.214126, 53.484884 ], [ -2.214125, 53.484883 ], [ -2.21414, 53.484874 ], [ -2.214164, 53.484888 ], [ -2.214168, 53.484891 ], [ -2.214173, 53.484893 ], [ -2.214178, 53.484895 ], [ -2.214184, 53.484896 ], [ -2.214189, 53.484897 ], [ -2.214195, 53.484898 ], [ -2.214201, 53.484899 ], [ -2.214207, 53.484899 ], [ -2.214213, 53.484899 ], [ -2.214219, 53.484898 ], [ -2.214225, 53.484897 ], [ -2.21423, 53.484896 ], [ -2.214236, 53.484895 ], [ -2.214241, 53.484893 ], [ -2.214246, 53.484891 ], [ -2.21425, 53.484888 ], [ -2.214548, 53.484707 ], [ -2.214552, 53.484705 ], [ -2.214555, 53.484702 ], [ -2.214558, 53.484699 ], [ -2.214561, 53.484696 ], [ -2.214563, 53.484692 ], [ -2.214564, 53.484689 ], [ -2.214565, 53.484685 ], [ -2.214565, 53.484682 ], [ -2.214565, 53.484679 ], [ -2.214564, 53.484675 ], [ -2.214564, 53.484674 ], [ -2.214567, 53.484674 ], [ -2.214573, 53.484674 ], [ -2.214579, 53.484674 ], [ -2.214585, 53.484673 ], [ -2.214591, 53.484672 ], [ -2.214596, 53.484671 ], [ -2.214601, 53.484669 ], [ -2.214606, 53.484667 ], [ -2.214611, 53.484665 ], [ -2.21481, 53.484559 ], [ -2.214814, 53.484556 ], [ -2.214818, 53.484553 ], [ -2.214822, 53.48455 ], [ -2.214825, 53.484547 ], [ -2.214827, 53.484544 ], [ -2.214829, 53.48454 ], [ -2.21483, 53.484537 ], [ -2.214835, 53.484536 ], [ -2.21484, 53.484534 ], [ -2.214845, 53.484531 ], [ -2.214849, 53.484529 ], [ -2.215554, 53.484094 ], [ -2.215558, 53.484091 ], [ -2.215562, 53.484088 ], [ -2.215565, 53.484085 ], [ -2.215567, 53.484082 ], [ -2.215569, 53.484079 ], [ -2.21557, 53.484075 ], [ -2.215571, 53.484072 ], [ -2.215571, 53.484068 ], [ -2.215571, 53.484065 ], [ -2.21557, 53.484061 ], [ -2.215568, 53.484058 ], [ -2.215566, 53.484054 ], [ -2.215563, 53.484051 ], [ -2.21556, 53.484048 ], [ -2.215556, 53.484045 ], [ -2.215553, 53.484043 ], [ -2.215604, 53.484013 ], [ -2.215605, 53.484012 ], [ -2.215882, 53.483851 ], [ -2.215902, 53.48385 ], [ -2.215908, 53.483849 ], [ -2.215914, 53.483849 ], [ -2.21592, 53.483848 ], [ -2.215926, 53.483846 ], [ -2.215931, 53.483844 ], [ -2.215936, 53.483842 ], [ -2.215941, 53.483839 ], [ -2.215945, 53.483837 ], [ -2.216025, 53.483778 ], [ -2.216052, 53.483791 ], [ -2.216057, 53.483793 ], [ -2.216062, 53.483795 ], [ -2.216067, 53.483796 ], [ -2.216073, 53.483798 ], [ -2.216079, 53.483798 ], [ -2.216085, 53.483799 ], [ -2.216091, 53.483799 ], [ -2.216097, 53.483799 ], [ -2.216103, 53.483798 ], [ -2.216109, 53.483797 ], [ -2.216115, 53.483796 ], [ -2.21612, 53.483794 ], [ -2.216125, 53.483792 ], [ -2.21613, 53.48379 ], [ -2.216134, 53.483788 ], [ -2.216138, 53.483785 ], [ -2.216141, 53.483782 ], [ -2.216353, 53.483576 ], [ -2.216502, 53.483489 ], [ -2.216513, 53.483498 ], [ -2.216517, 53.483501 ], [ -2.216521, 53.483504 ], [ -2.216526, 53.483506 ], [ -2.216531, 53.483508 ], [ -2.216536, 53.483509 ], [ -2.216541, 53.483511 ], [ -2.216547, 53.483512 ], [ -2.216553, 53.483513 ], [ -2.216559, 53.483513 ], [ -2.216565, 53.483513 ], [ -2.216571, 53.483513 ], [ -2.216576, 53.483512 ], [ -2.216582, 53.483511 ], [ -2.216587, 53.48351 ], [ -2.216593, 53.483508 ], [ -2.216598, 53.483506 ], [ -2.216731, 53.483448 ], [ -2.216735, 53.483446 ], [ -2.216739, 53.483443 ], [ -2.216743, 53.483441 ], [ -2.216746, 53.483438 ], [ -2.216749, 53.483435 ], [ -2.216752, 53.483431 ], [ -2.216753, 53.483428 ], [ -2.216755, 53.483424 ], [ -2.216755, 53.483421 ], [ -2.216755, 53.483417 ], [ -2.216755, 53.483414 ], [ -2.216754, 53.48341 ], [ -2.216752, 53.483407 ], [ -2.21675, 53.483404 ], [ -2.216747, 53.483401 ], [ -2.216744, 53.483398 ], [ -2.216708, 53.483369 ], [ -2.216988, 53.483207 ], [ -2.217261, 53.483102 ], [ -2.217265, 53.4831 ], [ -2.21727, 53.483098 ], [ -2.217274, 53.483095 ], [ -2.217277, 53.483093 ], [ -2.21728, 53.48309 ], [ -2.217283, 53.483087 ], [ -2.217285, 53.483083 ], [ -2.217287, 53.48308 ], [ -2.217287, 53.483078 ], [ -2.217292, 53.483075 ], [ -2.217572, 53.48292 ], [ -2.217576, 53.482918 ], [ -2.21758, 53.482915 ], [ -2.217583, 53.482912 ], [ -2.217585, 53.482909 ], [ -2.217588, 53.482906 ], [ -2.217589, 53.482903 ], [ -2.217591, 53.4829 ], [ -2.217591, 53.482896 ], [ -2.217596, 53.482855 ], [ -2.217675, 53.482808 ], [ -2.217677, 53.482809 ], [ -2.217682, 53.48281 ], [ -2.217688, 53.482811 ], [ -2.217694, 53.482812 ], [ -2.2177, 53.482812 ], [ -2.217706, 53.482812 ], [ -2.217711, 53.482811 ], [ -2.217717, 53.482811 ], [ -2.217723, 53.48281 ], [ -2.217728, 53.482808 ], [ -2.217733, 53.482806 ], [ -2.217738, 53.482804 ], [ -2.217743, 53.482802 ], [ -2.218709, 53.482253 ], [ -2.219676, 53.481704 ], [ -2.21968, 53.481701 ], [ -2.219683, 53.481699 ], [ -2.219687, 53.481696 ], [ -2.219689, 53.481692 ], [ -2.219691, 53.481689 ], [ -2.219693, 53.481685 ], [ -2.219694, 53.481682 ], [ -2.219694, 53.481678 ], [ -2.219694, 53.481675 ], [ -2.219693, 53.481671 ], [ -2.219692, 53.481668 ], [ -2.21969, 53.481664 ], [ -2.219687, 53.481661 ], [ -2.219684, 53.481658 ], [ -2.21968, 53.481655 ], [ -2.219676, 53.481652 ], [ -2.219672, 53.48165 ], [ -2.219667, 53.481648 ], [ -2.219662, 53.481646 ], [ -2.219659, 53.481645 ], [ -2.219955, 53.481472 ], [ -2.219956, 53.481472 ], [ -2.220216, 53.481322 ], [ -2.220217, 53.481321 ], [ -2.220813, 53.480984 ], [ -2.221079, 53.480806 ], [ -2.221088, 53.4808 ], [ -2.221307, 53.480681 ], [ -2.221543, 53.480543 ], [ -2.221731, 53.480424 ], [ -2.221741, 53.480419 ], [ -2.221751, 53.480414 ], [ -2.221762, 53.48041 ], [ -2.222017, 53.480322 ], [ -2.222423, 53.480154 ], [ -2.222434, 53.480149 ], [ -2.222447, 53.480146 ], [ -2.22246, 53.480143 ], [ -2.222725, 53.480094 ], [ -2.222845, 53.480066 ], [ -2.223175, 53.479969 ], [ -2.223279, 53.479931 ], [ -2.223289, 53.479928 ], [ -2.223381, 53.4799 ], [ -2.223524, 53.479843 ], [ -2.223539, 53.479838 ], [ -2.223625, 53.479812 ], [ -2.223731, 53.479759 ], [ -2.223929, 53.479871 ], [ -2.223929, 53.479871 ], [ -2.223787, 53.479942 ], [ -2.223775, 53.479948 ], [ -2.223761, 53.479952 ], [ -2.223668, 53.47998 ], [ -2.223526, 53.480037 ], [ -2.223511, 53.480042 ], [ -2.223416, 53.480071 ], [ -2.223311, 53.480109 ], [ -2.2233, 53.480113 ], [ -2.223001, 53.4802 ], [ -2.222991, 53.480195 ], [ -2.222987, 53.480192 ], [ -2.222982, 53.480191 ], [ -2.222977, 53.480189 ], [ -2.222972, 53.480187 ], [ -2.222966, 53.480186 ], [ -2.22296, 53.480186 ], [ -2.222955, 53.480185 ], [ -2.222949, 53.480185 ], [ -2.222943, 53.480185 ], [ -2.222937, 53.480186 ], [ -2.222932, 53.480187 ], [ -2.222926, 53.480188 ], [ -2.222921, 53.480189 ], [ -2.222916, 53.480191 ], [ -2.222912, 53.480193 ], [ -2.222907, 53.480196 ], [ -2.222903, 53.480198 ], [ -2.222847, 53.480239 ], [ -2.222819, 53.480245 ], [ -2.22281, 53.480247 ], [ -2.22256, 53.480294 ], [ -2.222167, 53.480456 ], [ -2.222158, 53.48046 ], [ -2.221915, 53.480544 ], [ -2.221739, 53.480656 ], [ -2.221735, 53.480658 ], [ -2.221495, 53.480798 ], [ -2.221492, 53.4808 ], [ -2.221277, 53.480917 ], [ -2.221011, 53.481094 ], [ -2.221003, 53.481099 ], [ -2.220404, 53.481438 ], [ -2.220145, 53.481588 ], [ -2.219992, 53.481677 ], [ -2.219694, 53.481843 ], [ -2.21969, 53.481845 ], [ -2.219686, 53.481848 ], [ -2.219683, 53.481851 ], [ -2.21968, 53.481854 ], [ -2.219678, 53.481857 ], [ -2.219677, 53.48186 ], [ -2.219676, 53.481862 ], [ -2.219322, 53.48207 ], [ -2.219317, 53.482068 ], [ -2.219312, 53.482067 ], [ -2.219306, 53.482067 ], [ -2.2193, 53.482066 ], [ -2.219294, 53.482066 ], [ -2.219289, 53.482066 ], [ -2.219283, 53.482067 ], [ -2.219277, 53.482068 ], [ -2.219272, 53.482069 ], [ -2.219266, 53.482071 ], [ -2.219261, 53.482073 ], [ -2.219257, 53.482075 ], [ -2.219252, 53.482077 ], [ -2.21894, 53.482271 ], [ -2.218937, 53.482274 ], [ -2.218933, 53.482277 ], [ -2.21893, 53.48228 ], [ -2.218928, 53.482283 ], [ -2.218926, 53.482286 ], [ -2.218925, 53.48229 ], [ -2.218924, 53.482293 ], [ -2.218924, 53.482297 ], [ -2.218924, 53.4823 ], [ -2.218925, 53.482303 ], [ -2.218388, 53.482617 ], [ -2.217869, 53.482876 ], [ -2.217865, 53.482879 ], [ -2.217861, 53.482881 ], [ -2.217858, 53.482884 ], [ -2.217855, 53.482887 ], [ -2.217852, 53.482891 ], [ -2.21785, 53.482894 ], [ -2.217849, 53.482897 ], [ -2.217848, 53.482901 ], [ -2.217848, 53.482904 ], [ -2.217848, 53.482908 ], [ -2.217849, 53.482911 ], [ -2.21785, 53.482915 ], [ -2.217852, 53.482918 ], [ -2.217855, 53.482921 ], [ -2.217858, 53.482924 ], [ -2.217861, 53.482926 ], [ -2.217705, 53.483018 ], [ -2.217704, 53.483018 ], [ -2.216755, 53.483568 ], [ -2.216646, 53.483631 ], [ -2.216644, 53.48363 ], [ -2.216639, 53.483628 ], [ -2.216634, 53.483627 ], [ -2.216628, 53.483626 ], [ -2.216622, 53.483625 ], [ -2.216617, 53.483624 ], [ -2.216611, 53.483624 ], [ -2.216605, 53.483624 ], [ -2.216599, 53.483625 ], [ -2.216593, 53.483625 ], [ -2.216588, 53.483627 ], [ -2.216582, 53.483628 ], [ -2.216577, 53.48363 ], [ -2.216572, 53.483632 ], [ -2.216568, 53.483634 ], [ -2.216012, 53.483959 ], [ -2.216008, 53.483962 ], [ -2.216004, 53.483965 ], [ -2.216001, 53.483967 ], [ -2.215999, 53.483971 ], [ -2.215997, 53.483974 ], [ -2.215995, 53.483977 ], [ -2.215994, 53.48398 ], [ -2.215994, 53.483984 ], [ -2.215994, 53.483987 ], [ -2.215994, 53.483991 ], [ -2.215996, 53.483994 ], [ -2.215997, 53.483997 ], [ -2.216, 53.484 ], [ -2.216002, 53.484003 ], [ -2.216003, 53.484004 ], [ -2.216004, 53.484006 ], [ -2.215796, 53.484127 ], [ -2.215677, 53.484199 ], [ -2.215673, 53.484199 ], [ -2.215667, 53.4842 ], [ -2.215662, 53.484202 ], [ -2.215656, 53.484204 ], [ -2.215651, 53.484206 ], [ -2.215647, 53.484208 ], [ -2.214724, 53.48475 ], [ -2.21472, 53.484753 ], [ -2.214716, 53.484756 ], [ -2.214715, 53.484757 ], [ -2.214711, 53.484755 ], [ -2.214706, 53.484753 ], [ -2.214701, 53.484751 ], [ -2.214696, 53.48475 ], [ -2.21469, 53.484749 ], [ -2.214685, 53.484748 ], [ -2.214679, 53.484747 ], [ -2.214673, 53.484747 ], [ -2.214667, 53.484747 ], [ -2.214661, 53.484748 ], [ -2.214655, 53.484748 ], [ -2.21465, 53.48475 ], [ -2.214644, 53.484751 ], [ -2.214639, 53.484753 ], [ -2.214635, 53.484755 ], [ -2.21463, 53.484757 ], [ -2.213617, 53.48534 ], [ -2.213613, 53.485343 ], [ -2.213609, 53.485345 ], [ -2.213606, 53.485348 ], [ -2.213604, 53.485352 ], [ -2.213602, 53.485355 ], [ -2.2136, 53.485358 ], [ -2.213599, 53.485362 ], [ -2.213599, 53.485365 ], [ -2.213599, 53.485369 ], [ -2.2136, 53.485372 ], [ -2.213601, 53.485376 ], [ -2.213603, 53.485379 ], [ -2.213605, 53.485382 ], [ -2.213608, 53.485385 ], [ -2.213612, 53.485388 ], [ -2.213616, 53.485391 ], [ -2.213631, 53.4854 ], [ -2.213557, 53.485443 ], [ -2.213547, 53.485437 ], [ -2.213543, 53.485435 ], [ -2.213538, 53.485432 ], [ -2.213533, 53.485431 ], [ -2.213528, 53.485429 ], [ -2.213522, 53.485428 ], [ -2.213517, 53.485427 ], [ -2.213511, 53.485426 ], [ -2.213505, 53.485426 ], [ -2.213499, 53.485426 ], [ -2.213493, 53.485427 ], [ -2.213487, 53.485427 ], [ -2.213482, 53.485429 ], [ -2.213476, 53.48543 ], [ -2.213471, 53.485432 ], [ -2.213466, 53.485434 ], [ -2.213462, 53.485436 ], [ -2.213182, 53.485599 ], [ -2.213178, 53.485602 ], [ -2.213174, 53.485605 ], [ -2.213171, 53.485608 ], [ -2.213169, 53.485611 ], [ -2.213167, 53.485614 ], [ -2.213165, 53.485618 ], [ -2.213164, 53.485621 ], [ -2.213164, 53.485625 ], [ -2.213164, 53.485628 ], [ -2.213165, 53.485632 ], [ -2.213166, 53.485635 ], [ -2.213168, 53.485638 ], [ -2.213171, 53.485642 ], [ -2.213174, 53.485645 ], [ -2.213177, 53.485648 ], [ -2.213178, 53.485648 ], [ -2.213105, 53.485683 ], [ -2.213102, 53.485684 ], [ -2.212882, 53.485784 ], [ -2.212869, 53.485789 ], [ -2.212856, 53.485794 ], [ -2.212603, 53.485862 ], [ -2.212391, 53.485939 ], [ -2.212381, 53.485942 ], [ -2.212181, 53.486002 ], [ -2.212167, 53.486006 ], [ -2.211897, 53.486066 ], [ -2.211885, 53.486068 ], [ -2.211872, 53.48607 ], [ -2.211672, 53.48609 ], [ -2.211665, 53.48609 ], [ -2.211515, 53.4861 ], [ -2.2115, 53.486101 ], [ -2.211312, 53.486101 ], [ -2.210848, 53.486111 ], [ -2.210416, 53.48613 ], [ -2.21022, 53.486149 ], [ -2.209998, 53.486188 ], [ -2.209987, 53.486189 ], [ -2.2098, 53.486212 ], [ -2.209795, 53.486212 ], [ -2.209789, 53.486212 ], [ -2.209784, 53.486213 ], [ -2.209778, 53.486214 ], [ -2.209773, 53.486215 ], [ -2.20977, 53.486216 ], [ -2.2095, 53.486249 ], [ -2.208956, 53.486328 ], [ -2.20853, 53.486407 ], [ -2.208515, 53.48641 ], [ -2.208245, 53.48644 ], [ -2.208231, 53.486441 ], [ -2.208033, 53.486451 ], [ -2.207885, 53.48646 ], [ -2.20787, 53.486461 ], [ -2.20773, 53.486461 ], [ -2.207714, 53.48646 ], [ -2.207574, 53.48645 ], [ -2.207573, 53.48645 ], [ -2.207443, 53.48644 ], [ -2.207431, 53.486439 ], [ -2.20742, 53.486437 ], [ -2.20731, 53.486417 ], [ -2.207309, 53.486417 ], [ -2.207149, 53.486387 ], [ -2.207141, 53.486385 ], [ -2.207011, 53.486355 ], [ -2.206999, 53.486352 ], [ -2.206988, 53.486348 ], [ -2.206828, 53.486288 ], [ -2.206819, 53.486285 ], [ -2.206811, 53.486281 ], [ -2.206561, 53.486151 ], [ -2.206557, 53.486149 ], [ -2.206257, 53.485979 ], [ -2.206248, 53.485973 ], [ -2.205808, 53.485673 ], [ -2.205798, 53.485666 ], [ -2.205751, 53.485625 ], [ -2.205718, 53.48536 ], [ -2.205728, 53.485364 ], [ -2.205742, 53.48537 ] ] ] } }
]
}
