{
"type": "FeatureCollection",
"name": "water",
"crs": { "type": "name", "properties": { "name": "urn:ogc:def:crs:OGC:1.3:CRS84" } },
"xy_coordinate_resolution": 1e-06,
"features": [
{ "type": "Feature", "properties": { "name": "River Medlock" }, "geometry": { "type": "LineString", "coordinates": [ [ -2.20616, 53.48566 ], [ -2.2064, 53.48558 ], [ -2.20682, 53.48543 ], [ -2.20793, 53.485 ], [ -2.20816, 53.48486 ], [ -2.20826, 53.48479 ], [ -2.20863, 53.48439 ], [ -2.2088, 53.48426 ], [ -2.20904, 53.48409 ], [ -2.2093, 53.48395 ], [ -2.20938, 53.48387 ], [ -2.2096, 53.4836 ], [ -2.20991, 53.48323 ], [ -2.21021, 53.48306 ], [ -2.21091, 53.48299 ], [ -2.21124, 53.483 ], [ -2.21165, 53.48294 ], [ -2.21194, 53.48294 ], [ -2.21218, 53.48291 ], [ -2.21254, 53.48287 ], [ -2.21266, 53.4828 ], [ -2.21274, 53.48261 ], [ -2.21273, 53.48253 ], [ -2.21269, 53.48243 ], [ -2.21258, 53.48233 ], [ -2.21211, 53.48213 ], [ -2.21165, 53.48199 ], [ -2.21121, 53.48192 ], [ -2.21092, 53.48182 ], [ -2.21089, 53.48177 ], [ -2.21086, 53.48169 ], [ -2.21089, 53.48163 ], [ -2.21094, 53.48157 ], [ -2.21112, 53.48151 ], [ -2.21212, 53.48122 ], [ -2.21229, 53.48113 ], [ -2.21241, 53.48105 ], [ -2.21255, 53.4808 ], [ -2.21261, 53.48059 ], [ -2.21273, 53.48045 ], [ -2.21297, 53.48033 ], [ -2.21333, 53.48025 ], [ -2.2139, 53.48019 ], [ -2.21422, 53.48012 ], [ -2.21437, 53.48005 ], [ -2.21444, 53.47992 ], [ -2.2144, 53.47983 ], [ -2.2134, 53.47934 ], [ -2.21272, 53.47904 ], [ -2.21255, 53.47896 ], [ -2.21247, 53.4789 ], [ -2.21243, 53.47882 ], [ -2.21244, 53.47875 ], [ -2.21253, 53.4787 ], [ -2.21266, 53.47863 ], [ -2.21301, 53.47857 ], [ -2.214, 53.47837 ], [ -2.21485, 53.47808 ], [ -2.2155, 53.47788 ], [ -2.21568, 53.47776 ], [ -2.21572, 53.47767 ], [ -2.21571, 53.47755 ], [ -2.21565, 53.47728 ], [ -2.21562, 53.47697 ], [ -2.21565, 53.47678 ], [ -2.21591, 53.47648 ], [ -2.2161, 53.47634 ], [ -2.21628, 53.47622 ], [ -2.21642, 53.4762 ], [ -2.21658, 53.47627 ], [ -2.21757, 53.47633 ], [ -2.21818, 53.47635 ], [ -2.21849, 53.47637 ], [ -2.2188, 53.47643 ], [ -2.21903, 53.4765 ], [ -2.21926, 53.47663 ], [ -2.21958, 53.47693 ], [ -2.21972, 53.47702 ], [ -2.21984, 53.47704 ], [ -2.21993, 53.47704 ], [ -2.22008, 53.477 ], [ -2.22026, 53.47675 ], [ -2.22035, 53.47654 ], [ -2.22047, 53.47644 ] ] } },
{ "type": "Feature", "properties": { "name": "Ashton Canal" }, "geometry": { "type": "LineString", "coordinates": [ [ -2.20297, 53.48555 ], [ -2.20335, 53.48551 ], [ -2.20425, 53.48542 ], [ -2.2046, 53.4854 ], [ -2.20553, 53.48538 ], [ -2.20565, 53.48543 ], [ -2.20576, 53.48549 ], [ -2.20591, 53.48562 ], [ -2.20635, 53.48592 ], [ -2.20665, 53.48609 ], [ -2.2069, 53.48622 ], [ -2.20706, 53.48628 ], [ -2.20719, 53.48631 ], [ -2.20735, 53.48634 ], [ -2.20746, 53.48636 ], [ -2.20759, 53.48637 ], [ -2.20773, 53.48638 ], [ -2.20787, 53.48638 ], [ -2.20802, 53.48637 ], [ -2.20822, 53.48636 ], [ -2.20849, 53.48633 ], [ -2.20892, 53.48625 ], [ -2.20947, 53.48617 ], [ -2.20996, 53.48611 ], [ -2.21019, 53.48607 ], [ -2.2104, 53.48605 ], [ -2.21084, 53.48603 ], [ -2.21131, 53.48602 ], [ -2.2115, 53.48602 ], [ -2.21165, 53.48601 ], [ -2.21185, 53.48599 ], [ -2.21212, 53.48593 ], [ -2.21232, 53.48587 ], [ -2.21254, 53.48579 ], [ -2.2128, 53.48572 ], [ -2.21302, 53.48562 ], [ -2.21323, 53.48552 ], [ -2.21354, 53.48534 ], [ -2.21434, 53.48487 ], [ -2.21502, 53.48448 ], [ -2.2157, 53.48407 ], [ -2.21666, 53.48351 ], [ -2.21761, 53.48296 ], [ -2.21964, 53.48177 ], [ -2.22005, 53.48153 ], [ -2.22031, 53.48138 ], [ -2.22091, 53.48104 ], [ -2.22118, 53.48086 ], [ -2.2214, 53.48074 ], [ -2.22164, 53.4806 ], [ -2.22183, 53.48048 ], [ -2.22209, 53.48039 ], [ -2.2225, 53.48022 ], [ -2.22277, 53.48017 ], [ -2.2229, 53.48014 ], [ -2.22324, 53.48004 ], [ -2.22335, 53.48 ], [ -2.22345, 53.47997 ], [ -2.2236, 53.47991 ], [ -2.2237, 53.47988 ], [ -2.22392, 53.47977 ], [ -2.22434, 53.47964 ], [ -2.22492, 53.47948 ], [ -2.22516, 53.47943 ], [ -2.22549, 53.47942 ], [ -2.22582, 53.47942 ], [ -2.22646, 53.47947 ], [ -2.22695, 53.47952 ] ] } }
]
}
