{
"type": "FeatureCollection",
"name": "site_wall",
"crs": { "type": "name", "properties": { "name": "urn:ogc:def:crs:OGC:1.3:CRS84" } },
"xy_coordinate_resolution": 1e-06,
"features": [
{ "type": "Feature", "properties": { }, "geometry": { "type": "Polygon", "coordinates": [ [ [ -2.224548, 53.48096 ], [ -2.224413, 53.48101 ], [ -2.223829, 53.481239 ], [ -2.22316, 53.481553 ], [ -2.22316, 53.481553 ], [ -2.222751, 53.481735 ], [ -2.22034, 53.482844 ], [ -2.220337, 53.482845 ], [ -2.220079, 53.482944 ], [ -2.219236, 53.48334 ], [ -2.218915, 53.483491 ], [ -2.218318, 53.483777 ], [ -2.218316, 53.483777 ], [ -2.21808, 53.483881 ], [ -2.217224, 53.484296 ], [ -2.217006, 53.484403 ], [ -2.217005, 53.484404 ], [ -2.216096, 53.484827 ], [ -2.215659, 53.48503 ], [ -2.214668, 53.485501 ], [ -2.21443, 53.485615 ], [ -2.214428, 53.485616 ], [ -2.214229, 53.485703 ], [ -2.214228, 53.485703 ], [ -2.213535, 53.485988 ], [ -2.213535, 53.485989 ], [ -2.212881, 53.486256 ], [ -2.212246, 53.486524 ], [ -2.212246, 53.486524 ], [ -2.211384, 53.486882 ], [ -2.210605, 53.48721 ], [ -2.209793, 53.487552 ], [ -2.209304, 53.487758 ], [ -2.209304, 53.487758 ], [ -2.208841, 53.487951 ], [ -2.2078, 53.488389 ], [ -2.206949, 53.488752 ], [ -2.206946, 53.488753 ], [ -2.206943, 53.488754 ], [ -2.206765, 53.488805 ], [ -2.205671, 53.489269 ], [ -2.205671, 53.489269 ], [ -2.205131, 53.489496 ], [ -2.204891, 53.489634 ], [ -2.2044, 53.489918 ], [ -2.20383, 53.490264 ], [ -2.203185, 53.490715 ], [ -2.203182, 53.490716 ], [ -2.203179, 53.490718 ], [ -2.203176, 53.490719 ], [ -2.203173, 53.49072 ], [ -2.203169, 53.490721 ], [ -2.203166, 53.490722 ], [ -2.203162, 53.490722 ], [ -2.203158, 53.490722 ], [ -2.203154, 53.490722 ], [ -2.20315, 53.490722 ], [ -2.203147, 53.490722 ], [ -2.203143, 53.490721 ], [ -2.20314, 53.49072 ], [ -2.203136, 53.490719 ], [ -2.203133, 53.490718 ], [ -2.202987, 53.490651 ], [ -2.202399, 53.490407 ], [ -2.202396, 53.490406 ], [ -2.202394, 53.490405 ], [ -2.202391, 53.490403 ], [ -2.202389, 53.490401 ], [ -2.202387, 53.490399 ], [ -2.202386, 53.490397 ], [ -2.202385, 53.490395 ], [ -2.202384, 53.490393 ], [ -2.202383, 53.49039 ], [ -2.202383, 53.490388 ], [ -2.202384, 53.490386 ], [ -2.202384, 53.490384 ], [ -2.202386, 53.490381 ], [ -2.202387, 53.490379 ], [ -2.202389, 53.490377 ], [ -2.202391, 53.490375 ], [ -2.202622, 53.490193 ], [ -2.202622, 53.490193 ], [ -2.202917, 53.48997 ], [ -2.203268, 53.489695 ], [ -2.203829, 53.48925 ], [ -2.203829, 53.489249 ], [ -2.204106, 53.489035 ], [ -2.204501, 53.488709 ], [ -2.204757, 53.488463 ], [ -2.204956, 53.488256 ], [ -2.2054, 53.487666 ], [ -2.205507, 53.487509 ], [ -2.205619, 53.487321 ], [ -2.205745, 53.487019 ], [ -2.205814, 53.486804 ], [ -2.205874, 53.486489 ], [ -2.205886, 53.486105 ], [ -2.205896, 53.48564 ], [ -2.205845, 53.485226 ], [ -2.205785, 53.485009 ], [ -2.205701, 53.484757 ], [ -2.20556, 53.484424 ], [ -2.20556, 53.484424 ], [ -2.205388, 53.483954 ], [ -2.205388, 53.483952 ], [ -2.205323, 53.483633 ], [ -2.205322, 53.48363 ], [ -2.205324, 53.483313 ], [ -2.205324, 53.483311 ], [ -2.205373, 53.482969 ], [ -2.205374, 53.482967 ], [ -2.205479, 53.482617 ], [ -2.205479, 53.482617 ], [ -2.205569, 53.482354 ], [ -2.20557, 53.482351 ], [ -2.205727, 53.482079 ], [ -2.205729, 53.482077 ], [ -2.205969, 53.48176 ], [ -2.205969, 53.481759 ], [ -2.206103, 53.481596 ], [ -2.206272, 53.481385 ], [ -2.206273, 53.481385 ], [ -2.206447, 53.481186 ], [ -2.206447, 53.481185 ], [ -2.206663, 53.48096 ], [ -2.206943, 53.480666 ], [ -2.206944, 53.480665 ], [ -2.207152, 53.480463 ], [ -2.207439, 53.480157 ], [ -2.207843, 53.479723 ], [ -2.208158, 53.479382 ], [ -2.208158, 53.479382 ], [ -2.208529, 53.478984 ], [ -2.208529, 53.478984 ], [ -2.209074, 53.478404 ], [ -2.209352, 53.478099 ], [ -2.209591, 53.477789 ], [ -2.209939, 53.477111 ], [ -2.210142, 53.476608 ], [ -2.210207, 53.476435 ], [ -2.210229, 53.476189 ], [ -2.210226, 53.47594 ], [ -2.210192, 53.475755 ], [ -2.21008, 53.475522 ], [ -2.209902, 53.475283 ], [ -2.209702, 53.475089 ], [ -2.20936, 53.474845 ], [ -2.209358, 53.474844 ], [ -2.209356, 53.474842 ], [ -2.209354, 53.47484 ], [ -2.209353, 53.474838 ], [ -2.209352, 53.474835 ], [ -2.209352, 53.474833 ], [ -2.209351, 53.474831 ], [ -2.209351, 53.474829 ], [ -2.209352, 53.474827 ], [ -2.209353, 53.474824 ], [ -2.209354, 53.474822 ], [ -2.209356, 53.47482 ], [ -2.209358, 53.474818 ], [ -2.20936, 53.474817 ], [ -2.209362, 53.474815 ], [ -2.209365, 53.474814 ], [ -2.209368, 53.474812 ], [ -2.209371, 53.474811 ], [ -2.209375, 53.47481 ], [ -2.209378, 53.474809 ], [ -2.209382, 53.474809 ], [ -2.209386, 53.474809 ], [ -2.209389, 53.474809 ], [ -2.209393, 53.474809 ], [ -2.209618, 53.474824 ], [ -2.210581, 53.474848 ], [ -2.210583, 53.474848 ], [ -2.212172, 53.474949 ], [ -2.212173, 53.474949 ], [ -2.21316, 53.475026 ], [ -2.21387, 53.475065 ], [ -2.214396, 53.475062 ], [ -2.214396, 53.475062 ], [ -2.214859, 53.475063 ], [ -2.214861, 53.475063 ], [ -2.215473, 53.475082 ], [ -2.215474, 53.475082 ], [ -2.216272, 53.475119 ], [ -2.21692, 53.475129 ], [ -2.216924, 53.475129 ], [ -2.216927, 53.475129 ], [ -2.21693, 53.47513 ], [ -2.216934, 53.47513 ], [ -2.216937, 53.475131 ], [ -2.21694, 53.475132 ], [ -2.216943, 53.475134 ], [ -2.216945, 53.475135 ], [ -2.216948, 53.475137 ], [ -2.21695, 53.475138 ], [ -2.217155, 53.475316 ], [ -2.217405, 53.475529 ], [ -2.217982, 53.476021 ], [ -2.217984, 53.476024 ], [ -2.218116, 53.476174 ], [ -2.218118, 53.476176 ], [ -2.218119, 53.476178 ], [ -2.21812, 53.47618 ], [ -2.218195, 53.476408 ], [ -2.218196, 53.47641 ], [ -2.218234, 53.476679 ], [ -2.218262, 53.476873 ], [ -2.218262, 53.476873 ], [ -2.218289, 53.47708 ], [ -2.218338, 53.477362 ], [ -2.218339, 53.477363 ], [ -2.218352, 53.477551 ], [ -2.218428, 53.477676 ], [ -2.218596, 53.477811 ], [ -2.218819, 53.477894 ], [ -2.219277, 53.477974 ], [ -2.219932, 53.478082 ], [ -2.219934, 53.478083 ], [ -2.220339, 53.47816 ], [ -2.220524, 53.478188 ], [ -2.220528, 53.478189 ], [ -2.220531, 53.47819 ], [ -2.220722, 53.478244 ], [ -2.220725, 53.478245 ], [ -2.220729, 53.478246 ], [ -2.221029, 53.478381 ], [ -2.22103, 53.478382 ], [ -2.221294, 53.478513 ], [ -2.221295, 53.478513 ], [ -2.221573, 53.478665 ], [ -2.221574, 53.478665 ], [ -2.222171, 53.478993 ], [ -2.222171, 53.478994 ], [ -2.222789, 53.479348 ], [ -2.223055, 53.479499 ], [ -2.223399, 53.479687 ], [ -2.223399, 53.479688 ], [ -2.22383, 53.479933 ], [ -2.223992, 53.480025 ], [ -2.223994, 53.480026 ], [ -2.223997, 53.480028 ], [ -2.22415, 53.480156 ], [ -2.224152, 53.480158 ], [ -2.224153, 53.480159 ], [ -2.224154, 53.480161 ], [ -2.224231, 53.480288 ], [ -2.224305, 53.48035 ], [ -2.224564, 53.480532 ], [ -2.224908, 53.480763 ], [ -2.22491, 53.480765 ], [ -2.224912, 53.480767 ], [ -2.224914, 53.480768 ], [ -2.224915, 53.48077 ], [ -2.224917, 53.480773 ], [ -2.224917, 53.480775 ], [ -2.224918, 53.480777 ], [ -2.224918, 53.480779 ], [ -2.224917, 53.480781 ], [ -2.224917, 53.480783 ], [ -2.224916, 53.480785 ], [ -2.224914, 53.480787 ], [ -2.224913, 53.480789 ], [ -2.224911, 53.480791 ], [ -2.224908, 53.480793 ], [ -2.224906, 53.480794 ], [ -2.224903, 53.480796 ], [ -2.224551, 53.480959 ], [ -2.224548, 53.48096 ] ], [ [ -2.224825, 53.480775 ], [ -2.224508, 53.480562 ], [ -2.224507, 53.480562 ], [ -2.224246, 53.480379 ], [ -2.224244, 53.480377 ], [ -2.224166, 53.480311 ], [ -2.224164, 53.480309 ], [ -2.224163, 53.480307 ], [ -2.224162, 53.480306 ], [ -2.224085, 53.48018 ], [ -2.223937, 53.480056 ], [ -2.223778, 53.479965 ], [ -2.223347, 53.47972 ], [ -2.223003, 53.479532 ], [ -2.223003, 53.479531 ], [ -2.222737, 53.47938 ], [ -2.222737, 53.47938 ], [ -2.222119, 53.479026 ], [ -2.221523, 53.478699 ], [ -2.221245, 53.478547 ], [ -2.220983, 53.478417 ], [ -2.220686, 53.478283 ], [ -2.220502, 53.478231 ], [ -2.22032, 53.478204 ], [ -2.220317, 53.478203 ], [ -2.219911, 53.478126 ], [ -2.219257, 53.478018 ], [ -2.219256, 53.478018 ], [ -2.218792, 53.477937 ], [ -2.218789, 53.477936 ], [ -2.218786, 53.477935 ], [ -2.218783, 53.477934 ], [ -2.21855, 53.477847 ], [ -2.218547, 53.477846 ], [ -2.218544, 53.477845 ], [ -2.218542, 53.477843 ], [ -2.21854, 53.477841 ], [ -2.218364, 53.4777 ], [ -2.218362, 53.477699 ], [ -2.21836, 53.477697 ], [ -2.218359, 53.477695 ], [ -2.21828, 53.477563 ], [ -2.218278, 53.47756 ], [ -2.218278, 53.477558 ], [ -2.218277, 53.477556 ], [ -2.218263, 53.477366 ], [ -2.218215, 53.477084 ], [ -2.218214, 53.477084 ], [ -2.218186, 53.476877 ], [ -2.218158, 53.476683 ], [ -2.218158, 53.476683 ], [ -2.218121, 53.476415 ], [ -2.218047, 53.476192 ], [ -2.217919, 53.476046 ], [ -2.217343, 53.475555 ], [ -2.217093, 53.475342 ], [ -2.217093, 53.475342 ], [ -2.216899, 53.475173 ], [ -2.216269, 53.475163 ], [ -2.216267, 53.475163 ], [ -2.215469, 53.475126 ], [ -2.214858, 53.475107 ], [ -2.214396, 53.475106 ], [ -2.213868, 53.475109 ], [ -2.213865, 53.475109 ], [ -2.213153, 53.47507 ], [ -2.213151, 53.47507 ], [ -2.212164, 53.474993 ], [ -2.210576, 53.474892 ], [ -2.209613, 53.474868 ], [ -2.209611, 53.474868 ], [ -2.209478, 53.47486 ], [ -2.209762, 53.475062 ], [ -2.209764, 53.475063 ], [ -2.209765, 53.475064 ], [ -2.209967, 53.475261 ], [ -2.209969, 53.475264 ], [ -2.210149, 53.475505 ], [ -2.210151, 53.475508 ], [ -2.210265, 53.475745 ], [ -2.210266, 53.475747 ], [ -2.210266, 53.475749 ], [ -2.210301, 53.475937 ], [ -2.210302, 53.475939 ], [ -2.210305, 53.47619 ], [ -2.210305, 53.476191 ], [ -2.210282, 53.476439 ], [ -2.210281, 53.476441 ], [ -2.210281, 53.476443 ], [ -2.210216, 53.476618 ], [ -2.210216, 53.476618 ], [ -2.210012, 53.477122 ], [ -2.210011, 53.477124 ], [ -2.209662, 53.477804 ], [ -2.20966, 53.477806 ], [ -2.20942, 53.478118 ], [ -2.209419, 53.47812 ], [ -2.20914, 53.478426 ], [ -2.20914, 53.478426 ], [ -2.208595, 53.479006 ], [ -2.208224, 53.479404 ], [ -2.207909, 53.479745 ], [ -2.207909, 53.479745 ], [ -2.207505, 53.480179 ], [ -2.207505, 53.480179 ], [ -2.207218, 53.480485 ], [ -2.207217, 53.480486 ], [ -2.207008, 53.480688 ], [ -2.206729, 53.480982 ], [ -2.206729, 53.480982 ], [ -2.206513, 53.481207 ], [ -2.20634, 53.481405 ], [ -2.206171, 53.481616 ], [ -2.206171, 53.481616 ], [ -2.206037, 53.481779 ], [ -2.205798, 53.482094 ], [ -2.205642, 53.482364 ], [ -2.205553, 53.482625 ], [ -2.205448, 53.482974 ], [ -2.2054, 53.483314 ], [ -2.205398, 53.483629 ], [ -2.205462, 53.483945 ], [ -2.205634, 53.484414 ], [ -2.205775, 53.484746 ], [ -2.205775, 53.484748 ], [ -2.205859, 53.485001 ], [ -2.205859, 53.485001 ], [ -2.205919, 53.485219 ], [ -2.20592, 53.485221 ], [ -2.205972, 53.485637 ], [ -2.205972, 53.485639 ], [ -2.205962, 53.486105 ], [ -2.205962, 53.486105 ], [ -2.20595, 53.48649 ], [ -2.205949, 53.486493 ], [ -2.205888, 53.48681 ], [ -2.205888, 53.486811 ], [ -2.205819, 53.487028 ], [ -2.205819, 53.487029 ], [ -2.205692, 53.487333 ], [ -2.20569, 53.487336 ], [ -2.205577, 53.487525 ], [ -2.205577, 53.487525 ], [ -2.20547, 53.487683 ], [ -2.205469, 53.487684 ], [ -2.205024, 53.488275 ], [ -2.205023, 53.488277 ], [ -2.204822, 53.488486 ], [ -2.204821, 53.488487 ], [ -2.204564, 53.488734 ], [ -2.204562, 53.488735 ], [ -2.204166, 53.489061 ], [ -2.204166, 53.489062 ], [ -2.203889, 53.489277 ], [ -2.203328, 53.489722 ], [ -2.203328, 53.489723 ], [ -2.202977, 53.489998 ], [ -2.202977, 53.489998 ], [ -2.202682, 53.490221 ], [ -2.202475, 53.490384 ], [ -2.203031, 53.490615 ], [ -2.203032, 53.490615 ], [ -2.203151, 53.490669 ], [ -2.203773, 53.490234 ], [ -2.203775, 53.490233 ], [ -2.204346, 53.489886 ], [ -2.204347, 53.489886 ], [ -2.204839, 53.489602 ], [ -2.204839, 53.489602 ], [ -2.205081, 53.489463 ], [ -2.205083, 53.489462 ], [ -2.205085, 53.489461 ], [ -2.205627, 53.489233 ], [ -2.206724, 53.488768 ], [ -2.206727, 53.488767 ], [ -2.20673, 53.488766 ], [ -2.206908, 53.488715 ], [ -2.207756, 53.488353 ], [ -2.207756, 53.488353 ], [ -2.208797, 53.487915 ], [ -2.208797, 53.487915 ], [ -2.20926, 53.487722 ], [ -2.209749, 53.487516 ], [ -2.210561, 53.487174 ], [ -2.21134, 53.486846 ], [ -2.21134, 53.486846 ], [ -2.212202, 53.486488 ], [ -2.212837, 53.48622 ], [ -2.212838, 53.486219 ], [ -2.213493, 53.485951 ], [ -2.214185, 53.485667 ], [ -2.214383, 53.48558 ], [ -2.21462, 53.485466 ], [ -2.214621, 53.485465 ], [ -2.215613, 53.484994 ], [ -2.215613, 53.484994 ], [ -2.21605, 53.484791 ], [ -2.216958, 53.484368 ], [ -2.217176, 53.484262 ], [ -2.217176, 53.484262 ], [ -2.218033, 53.483846 ], [ -2.218035, 53.483845 ], [ -2.218271, 53.483741 ], [ -2.218868, 53.483455 ], [ -2.218869, 53.483455 ], [ -2.21919, 53.483304 ], [ -2.21919, 53.483304 ], [ -2.220034, 53.482908 ], [ -2.220037, 53.482907 ], [ -2.220295, 53.482808 ], [ -2.222705, 53.481699 ], [ -2.222705, 53.481699 ], [ -2.223114, 53.481517 ], [ -2.223784, 53.481203 ], [ -2.223786, 53.481202 ], [ -2.224372, 53.480972 ], [ -2.224373, 53.480972 ], [ -2.224506, 53.480923 ], [ -2.224825, 53.480775 ] ] ] } }
]
}
