{
"type": "FeatureCollection",
"name": "site_boundary",
"crs": { "type": "name", "properties": { "name": "urn:ogc:def:crs:OGC:1.3:CRS84" } },
"xy_coordinate_resolution": 1e-06,
"features": [
{ "type": "Feature", "properties": { }, "geometry": { "type": "Polygon", "coordinates": [ [ [ -2.224528, 53.480941 ], [ -2.224393, 53.480991 ], [ -2.223807, 53.481221 ], [ -2.223137, 53.481535 ], [ -2.222728, 53.481717 ], [ -2.220317, 53.482826 ], [ -2.220057, 53.482926 ], [ -2.219213, 53.483322 ], [ -2.218892, 53.483473 ], [ -2.218294, 53.483759 ], [ -2.218057, 53.483863 ], [ -2.2172, 53.484279 ], [ -2.216982, 53.484386 ], [ -2.216073, 53.484809 ], [ -2.215636, 53.485012 ], [ -2.214644, 53.485483 ], [ -2.214406, 53.485598 ], [ -2.214207, 53.485685 ], [ -2.213514, 53.48597 ], [ -2.212859, 53.486238 ], [ -2.212224, 53.486506 ], [ -2.211362, 53.486864 ], [ -2.210583, 53.487192 ], [ -2.209771, 53.487534 ], [ -2.209282, 53.48774 ], [ -2.208819, 53.487933 ], [ -2.207778, 53.488371 ], [ -2.206927, 53.488734 ], [ -2.206746, 53.488786 ], [ -2.205649, 53.489251 ], [ -2.205107, 53.489479 ], [ -2.204865, 53.489618 ], [ -2.204373, 53.489902 ], [ -2.203802, 53.490249 ], [ -2.203156, 53.4907 ], [ -2.203009, 53.490633 ], [ -2.202421, 53.490389 ], [ -2.202652, 53.490207 ], [ -2.202947, 53.489984 ], [ -2.203298, 53.489709 ], [ -2.203859, 53.489263 ], [ -2.204136, 53.489048 ], [ -2.204532, 53.488722 ], [ -2.204789, 53.488475 ], [ -2.20499, 53.488266 ], [ -2.205435, 53.487675 ], [ -2.205542, 53.487517 ], [ -2.205655, 53.487328 ], [ -2.205782, 53.487024 ], [ -2.205851, 53.486807 ], [ -2.205912, 53.48649 ], [ -2.205924, 53.486105 ], [ -2.205934, 53.485639 ], [ -2.205882, 53.485223 ], [ -2.205822, 53.485005 ], [ -2.205738, 53.484752 ], [ -2.205597, 53.484419 ], [ -2.205425, 53.483949 ], [ -2.20536, 53.48363 ], [ -2.205362, 53.483313 ], [ -2.205411, 53.482971 ], [ -2.205516, 53.482621 ], [ -2.205606, 53.482358 ], [ -2.205763, 53.482086 ], [ -2.206003, 53.481769 ], [ -2.206137, 53.481606 ], [ -2.206306, 53.481395 ], [ -2.20648, 53.481196 ], [ -2.206696, 53.480971 ], [ -2.206976, 53.480677 ], [ -2.207185, 53.480474 ], [ -2.207472, 53.480168 ], [ -2.207876, 53.479734 ], [ -2.208191, 53.479393 ], [ -2.208562, 53.478995 ], [ -2.209107, 53.478415 ], [ -2.209386, 53.478109 ], [ -2.209626, 53.477797 ], [ -2.209975, 53.477117 ], [ -2.210179, 53.476613 ], [ -2.210244, 53.476438 ], [ -2.210267, 53.47619 ], [ -2.210264, 53.475939 ], [ -2.210229, 53.475751 ], [ -2.210115, 53.475514 ], [ -2.209935, 53.475273 ], [ -2.209733, 53.475076 ], [ -2.209389, 53.474831 ], [ -2.209615, 53.474846 ], [ -2.210579, 53.47487 ], [ -2.212168, 53.474971 ], [ -2.213156, 53.475048 ], [ -2.213868, 53.475087 ], [ -2.214396, 53.475084 ], [ -2.214859, 53.475085 ], [ -2.215471, 53.475104 ], [ -2.21627, 53.475141 ], [ -2.216919, 53.475151 ], [ -2.217124, 53.475329 ], [ -2.217374, 53.475542 ], [ -2.217951, 53.476034 ], [ -2.218083, 53.476184 ], [ -2.218158, 53.476412 ], [ -2.218196, 53.476681 ], [ -2.218224, 53.476875 ], [ -2.218252, 53.477082 ], [ -2.218301, 53.477364 ], [ -2.218315, 53.477555 ], [ -2.218394, 53.477687 ], [ -2.21857, 53.477828 ], [ -2.218803, 53.477915 ], [ -2.219267, 53.477996 ], [ -2.219922, 53.478104 ], [ -2.220329, 53.478182 ], [ -2.220515, 53.47821 ], [ -2.220706, 53.478264 ], [ -2.221006, 53.478399 ], [ -2.22127, 53.47853 ], [ -2.221548, 53.478682 ], [ -2.222145, 53.47901 ], [ -2.222763, 53.479364 ], [ -2.223029, 53.479515 ], [ -2.223373, 53.479704 ], [ -2.223804, 53.479949 ], [ -2.223966, 53.480041 ], [ -2.224119, 53.480169 ], [ -2.224197, 53.480298 ], [ -2.224275, 53.480364 ], [ -2.224536, 53.480547 ], [ -2.22488, 53.480778 ], [ -2.224528, 53.480941 ] ] ] } }
]
}
