{"type":"FeatureCollection","features":[{"type":"Feature","properties":{},"geometry":{"type":"LineString","coordinates":[[-2.238214,53.481798],[-2.238171,53.481781],[-2.23812,53.481749],[-2.238078,53.481716],[-2.238057,53.481692],[-2.238039,53.481667],[-2.238028,53.481643],[-2.238021,53.481619],[-2.238018,53.481581],[-2.238024,53.481557],[-2.23804,53.48152],[-2.238061,53.481493],[-2.238089,53.481463],[-2.238139,53.481429],[-2.238326,53.481301],[-2.238443,53.48122],[-2.238464,53.481209],[-2.23854,53.481164],[-2.238715,53.481054],[-2.238751,53.48103],[-2.238792,53.480999],[-2.238824,53.480974],[-2.238894,53.480923]]}},{"type":"Feature","properties":{},"geometry":{"type":"LineString","coordinates":[[-2.225626,53.494488],[-2.22574,53.494762],[-2.225888,53.495115],[-2.226039,53.495466],[-2.226111,53.495708]]}},{"type":"Feature","properties":{},"geometry":{"type":"LineString","coordinates":[[-2.241604,53.487962],[-2.241242,53.488198],[-2.241083,53.488272],[-2.240945,53.48836]]}},{"type":"Feature","properties":{},"geometry":{"type":"LineString","coordinates":[[-2.238701,53.484824],[-2.238752,53.484899],[-2.238762,53.484913],[-2.238836,53.484996],[-2.239082,53.485226],[-2.239372,53.485493],[-2.239572,53.485673],[-2.239634,53.485732],[-2.239696,53.485782],[-2.239804,53.485839],[-2.239937,53.485878],[-2.240228,53.48596],[-2.240383,53.486004],[-2.240436,53.486019],[-2.240785,53.486114]]}},{"type":"Feature","properties":{},"geometry":{"type":"LineString","coordinates":[[-2.238359,53.481354],[-2.238277,53.481403],[-2.238211,53.481452],[-2.238183,53.481485],[-2.23817,53.481511],[-2.238166,53.481538],[-2.238165,53.48158],[-2.23818,53.481628],[-2.238196,53.481655],[-2.238216,53.481676],[-2.238249,53.481699],[-2.238278,53.481718],[-2.238288,53.481723],[-2.238313,53.481736],[-2.238373,53.481758],[-2.238925,53.481913],[-2.239237,53.481999],[-2.239332,53.482033],[-2.23939,53.482066],[-2.239451,53.482111],[-2.23948,53.482149],[-2.239498,53.482183],[-2.239501,53.482223],[-2.239503,53.482261],[-2.23949,53.482329]]}},{"type":"Feature","properties":{},"geometry":{"type":"LineString","coordinates":[[-2.242334,53.478677],[-2.242238,53.478742],[-2.241657,53.479142],[-2.241615,53.479171],[-2.241575,53.479199],[-2.240839,53.479719],[-2.24079,53.479753],[-2.240722,53.479801],[-2.240022,53.480289],[-2.239836,53.480411]]}},{"type":"Feature","properties":{},"geometry":{"type":"LineString","coordinates":[[-2.238945,53.480956],[-2.238858,53.480998],[-2.238824,53.481014],[-2.238751,53.48103],[-2.238723,53.481032],[-2.238665,53.481037],[-2.238609,53.481039],[-2.238546,53.481037],[-2.238495,53.48103],[-2.238428,53.481018],[-2.238386,53.481005],[-2.238376,53.481003],[-2.238331,53.480988],[-2.238262,53.480963],[-2.238209,53.48094],[-2.238143,53.480901],[-2.238013,53.480819],[-2.237784,53.480699],[-2.237642,53.480625],[-2.237582,53.480598],[-2.23752,53.480574],[-2.237295,53.480483]]}},{"type":"Feature","properties":{},"geometry":{"type":"LineString","coordinates":[[-2.238288,53.480931],[-2.238346,53.480972],[-2.238386,53.481005],[-2.238407,53.481026],[-2.238441,53.481068],[-2.238456,53.481099],[-2.238467,53.481122],[-2.23847,53.481139],[-2.238469,53.481165],[-2.238464,53.481209],[-2.238447,53.481251],[-2.238416,53.4813],[-2.238384,53.48133],[-2.238359,53.481354]]}},{"type":"Feature","properties":{},"geometry":{"type":"LineString","coordinates":[[-2.238214,53.481798],[-2.2381,53.48177],[-2.237898,53.481711],[-2.237854,53.481695],[-2.237816,53.481676],[-2.2378,53.481666],[-2.23777,53.481641],[-2.237749,53.48162],[-2.237728,53.481596],[-2.237709,53.481565],[-2.237698,53.481529],[-2.237696,53.481498],[-2.237709,53.481453],[-2.237736,53.481411],[-2.238012,53.481129],[-2.238034,53.48109],[-2.238051,53.481043],[-2.238056,53.481005],[-2.238044,53.480969],[-2.238021,53.480926],[-2.237954,53.480869],[-2.23782,53.480781],[-2.237482,53.480603],[-2.237295,53.480483]]}},{"type":"Feature","properties":{},"geometry":{"type":"LineString","coordinates":[[-2.237261,53.489659],[-2.236899,53.489747],[-2.236369,53.489871],[-2.235899,53.489974],[-2.23545,53.490082],[-2.234933,53.490217],[-2.23423,53.490395],[-2.23347,53.490569],[-2.232842,53.490713],[-2.232174,53.490846],[-2.231599,53.490945],[-2.231136,53.491018]]}},{"type":"Feature","properties":{},"geometry":{"type":"LineString","coordinates":[[-2.235789,53.479858],[-2.235623,53.479733],[-2.2351,53.479339],[-2.234827,53.479135],[-2.234758,53.479082],[-2.234425,53.47883],[-2.234224,53.478678],[-2.234063,53.47855],[-2.23399,53.478488]]}},{"type":"Feature","properties":{},"geometry":{"type":"LineString","coordinates":[[-2.226044,53.4997],[-2.226048,53.499611],[-2.226067,53.499291],[-2.226088,53.498851],[-2.226136,53.498445],[-2.22616,53.498154]]}},{"type":"Feature","properties":{},"geometry":{"type":"LineString","coordinates":[[-2.238288,53.480931],[-2.238346,53.480953],[-2.238442,53.480981],[-2.238526,53.480992],[-2.238598,53.480993],[-2.238662,53.480992],[-2.23872,53.480982],[-2.238766,53.480971],[-2.238789,53.480964],[-2.238894,53.480923]]}},{"type":"Feature","properties":{},"geometry":{"type":"LineString","coordinates":[[-2.1981,53.485462],[-2.198488,53.485476],[-2.198732,53.485483],[-2.199005,53.48548],[-2.19943,53.485465],[-2.199951,53.485437],[-2.200416,53.485413],[-2.20087,53.48539]]}},{"type":"Feature","properties":{},"geometry":{"type":"LineString","coordinates":[[-2.208884,53.484437],[-2.20938,53.484243],[-2.209694,53.484134],[-2.210776,53.483806],[-2.211066,53.483722],[-2.21113,53.483692],[-2.211258,53.483636],[-2.211355,53.483592]]}},{"type":"Feature","properties":{},"geometry":{"type":"LineString","coordinates":[[-2.223278,53.479351],[-2.223638,53.479138],[-2.22386,53.479],[-2.224087,53.47885],[-2.224235,53.478774],[-2.224295,53.478742],[-2.224373,53.478704],[-2.224508,53.478645],[-2.224695,53.478572],[-2.22496,53.478476],[-2.225145,53.478408],[-2.225487,53.478288],[-2.225619,53.478238],[-2.225776,53.478179],[-2.226758,53.47775],[-2.227088,53.477611],[-2.227396,53.477489],[-2.227484,53.477454],[-2.22749,53.477452]]}},{"type":"Feature","properties":{},"geometry":{"type":"LineString","coordinates":[[-2.231702,53.477247],[-2.231738,53.47726],[-2.231864,53.477297],[-2.231967,53.477342],[-2.232056,53.477387],[-2.232154,53.477461],[-2.232189,53.477503],[-2.232197,53.477513],[-2.232252,53.477595],[-2.232339,53.477731],[-2.232455,53.477916],[-2.232489,53.477956],[-2.232544,53.478014],[-2.232619,53.478062],[-2.232642,53.478071],[-2.232697,53.478092],[-2.232779,53.47811],[-2.233659,53.478298],[-2.233751,53.478318],[-2.233785,53.478329],[-2.233836,53.478346],[-2.233909,53.478375]]}},{"type":"Feature","properties":{},"geometry":{"type":"LineString","coordinates":[[-2.226212,53.498152],[-2.226176,53.498333],[-2.226136,53.498445],[-2.226059,53.498612],[-2.226006,53.498712],[-2.225884,53.498908],[-2.225784,53.499036],[-2.225693,53.499138],[-2.225612,53.499216],[-2.225529,53.499293],[-2.225454,53.499364],[-2.225355,53.499451],[-2.225226,53.49956],[-2.22512,53.49965],[-2.225009,53.499731],[-2.224871,53.499825],[-2.224715,53.499924],[-2.22455,53.500026],[-2.224397,53.500106],[-2.224232,53.500183],[-2.224076,53.500251],[-2.223897,53.500314],[-2.223697,53.500376],[-2.223524,53.500422],[-2.223375,53.500461],[-2.22321,53.500497],[-2.223057,53.500526],[-2.222778,53.500581]]}},{"type":"Feature","properties":{},"geometry":{"type":"LineString","coordinates":[[-2.189284,53.48313],[-2.189955,53.482979],[-2.190457,53.482869],[-2.191069,53.482722],[-2.191334,53.482651],[-2.191532,53.482597],[-2.191924,53.482503],[-2.192338,53.482411],[-2.19254,53.482368],[-2.19299,53.482266],[-2.193572,53.482135],[-2.193825,53.48208]]}},{"type":"Feature","properties":{},"geometry":{"type":"LineString","coordinates":[[-2.189332,53.483154],[-2.189037,53.48322],[-2.188987,53.48323]]}},{"type":"Feature","properties":{},"geometry":{"type":"LineString","coordinates":[[-2.207704,53.484907],[-2.207944,53.484817],[-2.208547,53.484566],[-2.208884,53.484437]]}},{"type":"Feature","properties":{},"geometry":{"type":"LineString","coordinates":[[-2.226098,53.499686],[-2.226108,53.499908],[-2.226122,53.500114],[-2.226159,53.500364],[-2.22621,53.50058],[-2.22626,53.500768],[-2.226318,53.500929],[-2.226429,53.501188]]}},{"type":"Feature","properties":{},"geometry":{"type":"LineString","coordinates":[[-2.222649,53.500576],[-2.222851,53.500533],[-2.223298,53.500441],[-2.223479,53.500399],[-2.223612,53.500362],[-2.223755,53.500322],[-2.223908,53.500274],[-2.224073,53.500212],[-2.224219,53.500149],[-2.224342,53.500088],[-2.224496,53.500013],[-2.224683,53.4999],[-2.224854,53.499792],[-2.224977,53.499704],[-2.225089,53.49962],[-2.225206,53.499522],[-2.225334,53.499418],[-2.225414,53.499345],[-2.225497,53.499268],[-2.225589,53.499177],[-2.225674,53.499091],[-2.225764,53.498986],[-2.225846,53.498876],[-2.225902,53.498787],[-2.225973,53.498664],[-2.226016,53.498579],[-2.226048,53.498512],[-2.226086,53.498426],[-2.226118,53.498342],[-2.22616,53.498154]]}},{"type":"Feature","properties":{},"geometry":{"type":"LineString","coordinates":[[-2.226211,53.497691],[-2.226212,53.498152]]}},{"type":"Feature","properties":{},"geometry":{"type":"LineString","coordinates":[[-2.22615,53.497743],[-2.226182,53.4972],[-2.226229,53.496936]]}},{"type":"Feature","properties":{},"geometry":{"type":"LineString","coordinates":[[-2.226229,53.496936],[-2.226247,53.496738],[-2.226243,53.496543],[-2.226239,53.49651],[-2.226191,53.496176],[-2.226143,53.496016]]}},{"type":"Feature","properties":{},"geometry":{"type":"LineString","coordinates":[[-2.226143,53.496016],[-2.226113,53.49591],[-2.226085,53.495761]]}},{"type":"Feature","properties":{},"geometry":{"type":"LineString","coordinates":[[-2.226197,53.496011],[-2.226241,53.496188],[-2.226304,53.496555],[-2.226303,53.496733],[-2.22628,53.496935]]}},{"type":"Feature","properties":{},"geometry":{"type":"LineString","coordinates":[[-2.22628,53.496935],[-2.226227,53.497441],[-2.226211,53.497691]]}},{"type":"Feature","properties":{},"geometry":{"type":"LineString","coordinates":[[-2.231125,53.490989],[-2.231589,53.490916],[-2.231755,53.490888],[-2.232148,53.490822],[-2.232818,53.490687],[-2.23345,53.490546],[-2.234212,53.490372],[-2.234911,53.490196],[-2.235434,53.490062],[-2.235867,53.489955],[-2.236342,53.489844],[-2.236878,53.48972],[-2.237321,53.48961]]}},{"type":"Feature","properties":{},"geometry":{"type":"LineString","coordinates":[[-2.188987,53.48323],[-2.188943,53.483238],[-2.188887,53.48324],[-2.188805,53.483244],[-2.188736,53.483236],[-2.188665,53.483217],[-2.188613,53.483201],[-2.188568,53.483182],[-2.188558,53.483178]]}},{"type":"Feature","properties":{},"geometry":{"type":"LineString","coordinates":[[-2.188937,53.483203],[-2.188978,53.483197],[-2.189284,53.48313]]}},{"type":"Feature","properties":{},"geometry":{"type":"LineString","coordinates":[[-2.196461,53.484715],[-2.196134,53.484207],[-2.195903,53.483837],[-2.195771,53.483631],[-2.195557,53.483242],[-2.195376,53.482962],[-2.195273,53.482785],[-2.195197,53.48267]]}},{"type":"Feature","properties":{},"geometry":{"type":"LineString","coordinates":[[-2.193825,53.48208],[-2.193985,53.482057]]}},{"type":"Feature","properties":{},"geometry":{"type":"LineString","coordinates":[[-2.20892,53.484471],[-2.208589,53.484598],[-2.208249,53.484733],[-2.207934,53.484861],[-2.207733,53.484934]]}},{"type":"Feature","properties":{},"geometry":{"type":"LineString","coordinates":[[-2.207733,53.484934],[-2.207562,53.484991],[-2.207377,53.485037],[-2.207174,53.485077],[-2.206987,53.485102],[-2.20684,53.485117],[-2.206686,53.485129]]}},{"type":"Feature","properties":{},"geometry":{"type":"LineString","coordinates":[[-2.222666,53.479745],[-2.222342,53.479906],[-2.222055,53.480029],[-2.221703,53.480164],[-2.221327,53.480316],[-2.221247,53.480353]]}},{"type":"Feature","properties":{},"geometry":{"type":"LineString","coordinates":[[-2.211395,53.483612],[-2.211199,53.483705],[-2.211159,53.483719],[-2.211019,53.483768],[-2.210793,53.483841],[-2.210383,53.483962],[-2.209963,53.484089],[-2.209702,53.484172],[-2.2094,53.484274],[-2.20892,53.484471]]}},{"type":"Feature","properties":{},"geometry":{"type":"LineString","coordinates":[[-2.227618,53.477474],[-2.227611,53.477477],[-2.22753,53.477512],[-2.227409,53.477564],[-2.22711,53.477696],[-2.226539,53.477944],[-2.226212,53.478077],[-2.22577,53.478254],[-2.22567,53.478296],[-2.225573,53.478338],[-2.225532,53.478355],[-2.225486,53.478372],[-2.225441,53.478387],[-2.225075,53.47849],[-2.224902,53.478539],[-2.224756,53.478587],[-2.224613,53.47864],[-2.224524,53.478678],[-2.224373,53.478746],[-2.224188,53.47884],[-2.224038,53.478935],[-2.22391,53.479016],[-2.223685,53.479156],[-2.22347,53.479288],[-2.223314,53.479374]]}},{"type":"Feature","properties":{},"geometry":{"type":"LineString","coordinates":[[-2.166588,53.480956],[-2.16674,53.480976],[-2.166863,53.480989],[-2.166882,53.480991],[-2.167018,53.481007],[-2.167633,53.481082],[-2.16805,53.481133],[-2.168606,53.481202],[-2.169234,53.481285],[-2.169628,53.481339],[-2.169848,53.481369],[-2.17054,53.481459],[-2.171451,53.481578],[-2.172235,53.481679],[-2.172897,53.481773],[-2.17335,53.481835],[-2.174439,53.481986],[-2.17475,53.482024],[-2.175368,53.482101],[-2.175778,53.482152],[-2.176731,53.482271],[-2.177369,53.482349],[-2.177671,53.482391],[-2.177998,53.482436],[-2.17885,53.482541],[-2.179544,53.482625],[-2.179897,53.48268],[-2.180456,53.482748]]}},{"type":"Feature","properties":{},"geometry":{"type":"LineString","coordinates":[[-2.237295,53.480483],[-2.237211,53.480438],[-2.236904,53.480277],[-2.236596,53.480115],[-2.236511,53.480072],[-2.236417,53.480035],[-2.236282,53.479998],[-2.23609,53.479965],[-2.236032,53.479956]]}},{"type":"Feature","properties":{},"geometry":{"type":"LineString","coordinates":[[-2.226212,53.498152],[-2.226181,53.498491],[-2.226162,53.498681],[-2.226144,53.498867],[-2.22612,53.499294],[-2.226102,53.499582],[-2.226098,53.499686]]}},{"type":"Feature","properties":{},"geometry":{"type":"LineString","coordinates":[[-2.22616,53.498154],[-2.22615,53.497743]]}},{"type":"Feature","properties":{},"geometry":{"type":"LineString","coordinates":[[-2.238945,53.480956],[-2.238864,53.481016],[-2.238812,53.481048],[-2.238615,53.481188],[-2.238392,53.481333],[-2.238359,53.481354]]}},{"type":"Feature","properties":{},"geometry":{"type":"LineString","coordinates":[[-2.195197,53.48267],[-2.19517,53.482629],[-2.195108,53.482536],[-2.195003,53.482381],[-2.194908,53.482292],[-2.194775,53.482209],[-2.194675,53.482161],[-2.194508,53.482113],[-2.194352,53.482092],[-2.194231,53.482088],[-2.194067,53.48209],[-2.193851,53.482123],[-2.193798,53.482132]]}},{"type":"Feature","properties":{},"geometry":{"type":"LineString","coordinates":[[-2.240833,53.488372],[-2.241049,53.488224]]}},{"type":"Feature","properties":{},"geometry":{"type":"LineString","coordinates":[[-2.241965,53.487231],[-2.241779,53.487053]]}},{"type":"Feature","properties":{},"geometry":{"type":"LineString","coordinates":[[-2.239747,53.480366],[-2.239809,53.480341],[-2.239855,53.480322],[-2.23991,53.480291],[-2.239983,53.48024],[-2.240188,53.480103],[-2.24067,53.479778],[-2.240743,53.479729],[-2.240793,53.479694],[-2.241525,53.479174],[-2.241569,53.479143],[-2.241607,53.479116],[-2.242179,53.478714],[-2.242278,53.478647],[-2.242302,53.47863],[-2.242323,53.478615],[-2.2424,53.47856],[-2.242544,53.478458],[-2.243093,53.478074],[-2.243116,53.478057],[-2.243324,53.477911]]}},{"type":"Feature","properties":{},"geometry":{"type":"LineString","coordinates":[[-2.243591,53.483139],[-2.243687,53.483004],[-2.243872,53.482745],[-2.244201,53.482243],[-2.244305,53.482105],[-2.244364,53.482018],[-2.244454,53.481901],[-2.244525,53.481788],[-2.244566,53.481698],[-2.244711,53.481299],[-2.244753,53.481178],[-2.244787,53.48108],[-2.244821,53.480994],[-2.244899,53.480787],[-2.244925,53.480714],[-2.244947,53.480656],[-2.244996,53.480517],[-2.245063,53.480333],[-2.245083,53.480281]]}},{"type":"Feature","properties":{},"geometry":{"type":"LineString","coordinates":[[-2.242483,53.484797],[-2.242328,53.484943],[-2.24227,53.485002],[-2.242183,53.485087],[-2.242087,53.485185],[-2.242045,53.485228],[-2.241625,53.485786],[-2.241381,53.486055],[-2.241361,53.486115],[-2.241356,53.48617],[-2.24136,53.486228],[-2.241363,53.486244],[-2.241397,53.486396]]}},{"type":"Feature","properties":{},"geometry":{"type":"LineString","coordinates":[[-2.241397,53.486396],[-2.241447,53.486512],[-2.241508,53.486626],[-2.241626,53.486812]]}},{"type":"Feature","properties":{},"geometry":{"type":"LineString","coordinates":[[-2.240756,53.486165],[-2.240298,53.486023],[-2.239965,53.48592],[-2.239803,53.485869],[-2.239683,53.485811],[-2.239611,53.485762],[-2.239552,53.48571],[-2.239506,53.485667],[-2.239101,53.485288],[-2.238803,53.48501],[-2.238736,53.484942],[-2.238713,53.484919],[-2.238688,53.484893],[-2.238656,53.484841]]}},{"type":"Feature","properties":{},"geometry":{"type":"LineString","coordinates":[[-2.240244,53.488664],[-2.240476,53.488517],[-2.240764,53.48831],[-2.241025,53.488101],[-2.241414,53.487826],[-2.241427,53.487819]]}},{"type":"Feature","properties":{},"geometry":{"type":"LineString","coordinates":[[-2.24032,53.488738],[-2.240066,53.48884],[-2.239837,53.488909],[-2.23843,53.48933],[-2.238258,53.489379],[-2.237571,53.489576],[-2.237261,53.489659]]}},{"type":"Feature","properties":{},"geometry":{"type":"LineString","coordinates":[[-2.238555,53.484477],[-2.238555,53.484427],[-2.238561,53.484355],[-2.238579,53.48424],[-2.238595,53.484171],[-2.238618,53.484095],[-2.238641,53.484035],[-2.238696,53.483909],[-2.238752,53.483779],[-2.238824,53.483609],[-2.238882,53.483488],[-2.238921,53.483402],[-2.238949,53.483311],[-2.238966,53.483249],[-2.238997,53.483134],[-2.239002,53.483123],[-2.239042,53.483026],[-2.239251,53.482648],[-2.239405,53.482299]]}},{"type":"Feature","properties":{},"geometry":{"type":"LineString","coordinates":[[-2.23949,53.482329],[-2.239331,53.482661],[-2.239273,53.482781],[-2.239199,53.482917],[-2.239108,53.48306],[-2.239075,53.483119],[-2.239071,53.483132],[-2.239026,53.483259],[-2.23901,53.483294],[-2.238989,53.48336],[-2.238954,53.483449],[-2.238887,53.48358],[-2.238844,53.483685],[-2.238796,53.483793],[-2.238758,53.483879],[-2.238727,53.483946],[-2.238683,53.48405],[-2.238658,53.484125],[-2.238645,53.484176],[-2.238624,53.484239],[-2.238619,53.484271],[-2.238604,53.484373],[-2.238604,53.484474],[-2.238621,53.484577],[-2.238636,53.484632],[-2.238657,53.484708],[-2.238671,53.484741],[-2.238701,53.484824]]}},{"type":"Feature","properties":{},"geometry":{"type":"LineString","coordinates":[[-2.239405,53.482299],[-2.239411,53.482273],[-2.239411,53.482246],[-2.239407,53.482219],[-2.239392,53.482192],[-2.23936,53.482167],[-2.239312,53.482132],[-2.239259,53.482103],[-2.239159,53.482067],[-2.238623,53.481917],[-2.238252,53.481814]]}},{"type":"Feature","properties":{},"geometry":{"type":"LineString","coordinates":[[-2.23399,53.478488],[-2.233925,53.478442],[-2.233879,53.47841],[-2.233796,53.47837],[-2.233706,53.478345],[-2.233615,53.478325],[-2.232756,53.478142],[-2.232634,53.478111],[-2.232603,53.478098],[-2.232582,53.478089],[-2.232532,53.478061],[-2.232473,53.478015],[-2.232422,53.477964],[-2.23239,53.477913],[-2.232299,53.477765],[-2.232204,53.477616],[-2.232155,53.477556],[-2.232126,53.477531],[-2.232071,53.477489],[-2.231956,53.477437],[-2.231828,53.477386],[-2.231807,53.47738],[-2.231787,53.477375]]}},{"type":"Feature","properties":{},"geometry":{"type":"LineString","coordinates":[[-2.233909,53.478375],[-2.233988,53.478431],[-2.234034,53.47847],[-2.234126,53.478551],[-2.234214,53.47862],[-2.234294,53.47868],[-2.234544,53.47887],[-2.234792,53.479061],[-2.235324,53.47947],[-2.235539,53.479631],[-2.235629,53.479701],[-2.235712,53.479761],[-2.235794,53.479821]]}},{"type":"Feature","properties":{},"geometry":{"type":"LineString","coordinates":[[-2.180952,53.482837],[-2.180945,53.482836],[-2.180229,53.482743],[-2.179757,53.482682],[-2.178177,53.482479],[-2.177663,53.482413],[-2.175635,53.482157],[-2.174739,53.482048],[-2.17331,53.481846],[-2.172224,53.481705],[-2.171443,53.481601],[-2.169863,53.481396],[-2.169847,53.481394],[-2.169619,53.481361],[-2.169226,53.481309],[-2.168595,53.48123],[-2.168577,53.481227],[-2.167625,53.481103],[-2.167613,53.481101],[-2.167095,53.481037],[-2.166872,53.48101]]}},{"type":"Feature","properties":{},"geometry":{"type":"LineString","coordinates":[[-2.180456,53.482748],[-2.180825,53.482798],[-2.180953,53.482816],[-2.180993,53.48282],[-2.181129,53.482835],[-2.18122,53.482842],[-2.181332,53.482845],[-2.181491,53.482842],[-2.181658,53.482832],[-2.181789,53.482823],[-2.182324,53.482794],[-2.183027,53.482752],[-2.183125,53.482746],[-2.1832,53.482743],[-2.183359,53.482734],[-2.183569,53.482729],[-2.183758,53.482739],[-2.183966,53.482763],[-2.184096,53.482779],[-2.184485,53.482828],[-2.184973,53.482884],[-2.185192,53.482906],[-2.185794,53.482988],[-2.186124,53.483034],[-2.186343,53.483049],[-2.186481,53.483049]]}},{"type":"Feature","properties":{},"geometry":{"type":"LineString","coordinates":[[-2.188594,53.483156],[-2.188629,53.483168],[-2.18865,53.483175],[-2.188699,53.483191],[-2.188755,53.483202],[-2.188803,53.483208],[-2.188857,53.48321],[-2.188897,53.48321],[-2.188937,53.483203]]}},{"type":"Feature","properties":{},"geometry":{"type":"LineString","coordinates":[[-2.188558,53.483178],[-2.188444,53.483131],[-2.188365,53.483076],[-2.188353,53.483068],[-2.188147,53.482973],[-2.188069,53.482946],[-2.187991,53.482921],[-2.187898,53.4829],[-2.187823,53.482887],[-2.18775,53.482879],[-2.187642,53.482874],[-2.187549,53.482878],[-2.187462,53.482883],[-2.187374,53.482896],[-2.18726,53.482917],[-2.187043,53.482966],[-2.186876,53.483002],[-2.186738,53.483032],[-2.186633,53.483051],[-2.186545,53.483062],[-2.186456,53.483067],[-2.186359,53.483069],[-2.186277,53.483066],[-2.186126,53.483053],[-2.185711,53.482996],[-2.185212,53.482935],[-2.184087,53.482808],[-2.18373,53.482765],[-2.183532,53.482758],[-2.183328,53.482763],[-2.183186,53.482771],[-2.183118,53.482774],[-2.183017,53.482779],[-2.182429,53.48281],[-2.181794,53.482845],[-2.181662,53.482854],[-2.181519,53.482863],[-2.181361,53.482869],[-2.181215,53.482864],[-2.181081,53.482852],[-2.180952,53.482837]]}},{"type":"Feature","properties":{},"geometry":{"type":"LineString","coordinates":[[-2.195228,53.482505],[-2.195387,53.482735],[-2.195833,53.483516],[-2.19613,53.483994],[-2.196264,53.484238],[-2.196521,53.484705]]}},{"type":"Feature","properties":{},"geometry":{"type":"LineString","coordinates":[[-2.193985,53.482057],[-2.194228,53.482029],[-2.194362,53.482029],[-2.194485,53.482038],[-2.19461,53.482058],[-2.19471,53.482085],[-2.19475,53.482101],[-2.19487,53.482149],[-2.194959,53.482195],[-2.195077,53.482278],[-2.195138,53.482352],[-2.195228,53.482505]]}},{"type":"Feature","properties":{},"geometry":{"type":"LineString","coordinates":[[-2.193798,53.482132],[-2.193543,53.482186],[-2.193016,53.4823],[-2.192359,53.482445],[-2.19194,53.482535],[-2.191423,53.482657],[-2.191093,53.482751],[-2.190524,53.482887],[-2.189332,53.483154]]}},{"type":"Feature","properties":{},"geometry":{"type":"LineString","coordinates":[[-2.212749,53.482945],[-2.212958,53.482835],[-2.213086,53.482778],[-2.213214,53.482717]]}},{"type":"Feature","properties":{},"geometry":{"type":"LineString","coordinates":[[-2.213351,53.48271],[-2.213225,53.482756],[-2.212997,53.482853],[-2.212776,53.48296],[-2.21246,53.483113],[-2.212049,53.483305],[-2.211665,53.483484],[-2.211395,53.483612]]}},{"type":"Feature","properties":{},"geometry":{"type":"LineString","coordinates":[[-2.213214,53.482717],[-2.213333,53.482677],[-2.213408,53.482652],[-2.213492,53.482638],[-2.21355,53.48263],[-2.213693,53.482607],[-2.213784,53.482593],[-2.214517,53.48248],[-2.215179,53.48239],[-2.2163,53.482227],[-2.216575,53.482178],[-2.216601,53.482173],[-2.216659,53.48216],[-2.216744,53.482138],[-2.216889,53.4821],[-2.216928,53.48209],[-2.216952,53.482078]]}},{"type":"Feature","properties":{},"geometry":{"type":"LineString","coordinates":[[-2.217014,53.482092],[-2.216916,53.482126],[-2.216792,53.48217],[-2.216741,53.482182],[-2.216686,53.482196],[-2.216598,53.482214],[-2.216029,53.4823],[-2.215193,53.482424],[-2.214855,53.482472],[-2.21463,53.482507],[-2.21383,53.482623],[-2.213707,53.482643],[-2.21351,53.482673],[-2.213351,53.48271]]}},{"type":"Feature","properties":{},"geometry":{"type":"LineString","coordinates":[[-2.219043,53.481445],[-2.218944,53.481472],[-2.218807,53.481499],[-2.21866,53.481525],[-2.218424,53.481567],[-2.218237,53.481604],[-2.218123,53.481633],[-2.217864,53.481721],[-2.217685,53.481791],[-2.217505,53.481885],[-2.217299,53.481983],[-2.217246,53.482004],[-2.217133,53.482051],[-2.217014,53.482092]]}},{"type":"Feature","properties":{},"geometry":{"type":"LineString","coordinates":[[-2.21923,53.481322],[-2.219383,53.48125],[-2.219796,53.481043],[-2.220171,53.480854],[-2.220411,53.480722],[-2.220839,53.480508],[-2.221099,53.48038],[-2.221217,53.480325]]}},{"type":"Feature","properties":{},"geometry":{"type":"LineString","coordinates":[[-2.186481,53.483049],[-2.186719,53.483013],[-2.18684,53.482987],[-2.187013,53.482949],[-2.187207,53.482903],[-2.187451,53.482862],[-2.187652,53.482854],[-2.187857,53.482871],[-2.188095,53.482927],[-2.188235,53.482978],[-2.188397,53.48306],[-2.188408,53.483066],[-2.188495,53.483112],[-2.188594,53.483156]]}},{"type":"Feature","properties":{},"geometry":{"type":"LineString","coordinates":[[-2.20087,53.48539],[-2.201314,53.485367],[-2.20287,53.485286],[-2.204146,53.485218],[-2.205073,53.485173],[-2.205718,53.485139],[-2.206361,53.485109],[-2.206679,53.485094]]}},{"type":"Feature","properties":{},"geometry":{"type":"LineString","coordinates":[[-2.201137,53.485412],[-2.200336,53.485448],[-2.199667,53.485485],[-2.199077,53.485522],[-2.198744,53.485527],[-2.198491,53.485526],[-2.198262,53.485514],[-2.198092,53.485505]]}},{"type":"Feature","properties":{},"geometry":{"type":"LineString","coordinates":[[-2.206679,53.485094],[-2.206823,53.485083],[-2.207023,53.485062],[-2.207152,53.485041],[-2.207303,53.485014],[-2.207424,53.484988],[-2.207574,53.484948],[-2.207704,53.484907]]}},{"type":"Feature","properties":{},"geometry":{"type":"LineString","coordinates":[[-2.206686,53.485129],[-2.206629,53.485133],[-2.206261,53.485148],[-2.205752,53.485173],[-2.205414,53.485194],[-2.205007,53.485212],[-2.204586,53.485232],[-2.20388,53.485269],[-2.203401,53.485293],[-2.202876,53.485321],[-2.202342,53.485349],[-2.201325,53.485403],[-2.201137,53.485412]]}},{"type":"Feature","properties":{},"geometry":{"type":"LineString","coordinates":[[-2.216952,53.482078],[-2.217039,53.482051],[-2.217148,53.482005],[-2.217237,53.481966],[-2.217288,53.481944],[-2.217499,53.481838],[-2.217666,53.481755],[-2.217833,53.481684],[-2.218105,53.481597],[-2.218311,53.481553],[-2.218557,53.481513],[-2.218781,53.48147],[-2.218921,53.481442],[-2.219014,53.481413],[-2.219119,53.481374],[-2.21923,53.481322]]}},{"type":"Feature","properties":{},"geometry":{"type":"LineString","coordinates":[[-2.226111,53.495708],[-2.22613,53.495771]]}},{"type":"Feature","properties":{},"geometry":{"type":"LineString","coordinates":[[-2.226085,53.495761],[-2.22607,53.495702]]}},{"type":"Feature","properties":{},"geometry":{"type":"LineString","coordinates":[[-2.22613,53.495771],[-2.226197,53.496011]]}},{"type":"Feature","properties":{},"geometry":{"type":"LineString","coordinates":[[-2.22607,53.495702],[-2.22599,53.495482],[-2.225838,53.495122],[-2.22569,53.494766],[-2.22558,53.494493]]}},{"type":"Feature","properties":{},"geometry":{"type":"LineString","coordinates":[[-2.244042,53.477483],[-2.244017,53.477514],[-2.243943,53.477606],[-2.243842,53.477724],[-2.243701,53.477836],[-2.243519,53.477964],[-2.243395,53.478049],[-2.242884,53.47841],[-2.242868,53.478422],[-2.242754,53.478493]]}},{"type":"Feature","properties":{},"geometry":{"type":"LineString","coordinates":[[-2.245161,53.480252],[-2.244957,53.480801],[-2.24488,53.481002],[-2.24485,53.481089],[-2.244818,53.481187],[-2.244774,53.481318],[-2.244632,53.481706],[-2.244598,53.481786],[-2.244547,53.481867],[-2.244483,53.481958],[-2.244352,53.482118],[-2.244123,53.482466],[-2.243923,53.482756],[-2.243739,53.483016],[-2.243716,53.483048],[-2.243645,53.483148]]}},{"type":"Feature","properties":{},"geometry":{"type":"LineString","coordinates":[[-2.24272,53.47848],[-2.242799,53.478404],[-2.243368,53.478011],[-2.243633,53.477772],[-2.243674,53.477685],[-2.243765,53.477569]]}},{"type":"Feature","properties":{},"geometry":{"type":"LineString","coordinates":[[-2.241677,53.486953],[-2.241644,53.48692],[-2.241579,53.486823]]}},{"type":"Feature","properties":{},"geometry":{"type":"LineString","coordinates":[[-2.24411,53.477513],[-2.244089,53.477543],[-2.244048,53.477603],[-2.243998,53.477671],[-2.243908,53.477797],[-2.243769,53.477921],[-2.243638,53.478013],[-2.243138,53.478363],[-2.242997,53.478463],[-2.242911,53.478531]]}},{"type":"Feature","properties":{},"geometry":{"type":"LineString","coordinates":[[-2.211355,53.483592],[-2.211528,53.483513],[-2.21164,53.483464],[-2.212026,53.483285],[-2.212435,53.483095],[-2.212749,53.482945]]}},{"type":"Feature","properties":{},"geometry":{"type":"LineString","coordinates":[[-2.241724,53.486921],[-2.241745,53.486944],[-2.241844,53.48704]]}},{"type":"Feature","properties":{},"geometry":{"type":"LineString","coordinates":[[-2.241579,53.486823],[-2.241466,53.486652],[-2.241367,53.486468],[-2.241332,53.486384],[-2.241288,53.486253],[-2.241276,53.486215],[-2.241269,53.48618],[-2.241272,53.486139],[-2.2413,53.486084],[-2.241575,53.485772]]}},{"type":"Feature","properties":{},"geometry":{"type":"LineString","coordinates":[[-2.241688,53.486946],[-2.241738,53.486975],[-2.241844,53.48704]]}},{"type":"Feature","properties":{},"geometry":{"type":"LineString","coordinates":[[-2.241493,53.486877],[-2.241345,53.486728],[-2.241315,53.486655],[-2.241233,53.486449]]}},{"type":"Feature","properties":{},"geometry":{"type":"LineString","coordinates":[[-2.241922,53.487105],[-2.242124,53.48729],[-2.242188,53.487365],[-2.242199,53.487425],[-2.242181,53.487495],[-2.242104,53.487603],[-2.241926,53.487751],[-2.241664,53.487922]]}},{"type":"Feature","properties":{},"geometry":{"type":"LineString","coordinates":[[-2.241965,53.487231],[-2.241847,53.487159],[-2.241721,53.487074]]}},{"type":"Feature","properties":{},"geometry":{"type":"LineString","coordinates":[[-2.241844,53.48704],[-2.241922,53.487105]]}},{"type":"Feature","properties":{},"geometry":{"type":"LineString","coordinates":[[-2.241922,53.487105],[-2.242031,53.487285]]}},{"type":"Feature","properties":{},"geometry":{"type":"LineString","coordinates":[[-2.241916,53.487285],[-2.241847,53.487159],[-2.241779,53.487053]]}},{"type":"Feature","properties":{},"geometry":{"type":"LineString","coordinates":[[-2.241916,53.487285],[-2.24186,53.487215],[-2.241721,53.487074]]}},{"type":"Feature","properties":{},"geometry":{"type":"LineString","coordinates":[[-2.240945,53.48836],[-2.241049,53.488224],[-2.241204,53.488099],[-2.241519,53.487896]]}},{"type":"Feature","properties":{},"geometry":{"type":"LineString","coordinates":[[-2.242031,53.487285],[-2.241965,53.487231]]}},{"type":"Feature","properties":{},"geometry":{"type":"LineString","coordinates":[[-2.240291,53.488708],[-2.240357,53.48868],[-2.240833,53.488372]]}},{"type":"Feature","properties":{},"geometry":{"type":"LineString","coordinates":[[-2.241626,53.486987],[-2.241493,53.486877]]}},{"type":"Feature","properties":{},"geometry":{"type":"LineString","coordinates":[[-2.241551,53.487875],[-2.241785,53.48773],[-2.241923,53.487628],[-2.242022,53.487549],[-2.242062,53.487484],[-2.242078,53.487399],[-2.242054,53.48732],[-2.242031,53.487285]]}},{"type":"Feature","properties":{},"geometry":{"type":"LineString","coordinates":[[-2.244297,53.47721],[-2.244477,53.477078],[-2.245148,53.476613],[-2.245235,53.476558],[-2.245367,53.476476],[-2.245454,53.476425],[-2.245564,53.476354]]}},{"type":"Feature","properties":{},"geometry":{"type":"LineString","coordinates":[[-2.221247,53.480353],[-2.22106,53.480439],[-2.220832,53.480552],[-2.220697,53.480618],[-2.220588,53.480676],[-2.220309,53.480819],[-2.220199,53.480873],[-2.219824,53.481064],[-2.21942,53.481272],[-2.219167,53.481397],[-2.219043,53.481445]]}},{"type":"Feature","properties":{},"geometry":{"type":"LineString","coordinates":[[-2.221217,53.480325],[-2.221351,53.480265],[-2.221674,53.480137],[-2.222046,53.479987],[-2.222294,53.479879],[-2.222624,53.479713]]}},{"type":"Feature","properties":{},"geometry":{"type":"LineString","coordinates":[[-2.226376,53.501188],[-2.226263,53.500929],[-2.226205,53.500776],[-2.226162,53.500619],[-2.2261,53.500368],[-2.226068,53.50011],[-2.226052,53.499885],[-2.226044,53.4997]]}},{"type":"Feature","properties":{},"geometry":{"type":"LineString","coordinates":[[-2.238252,53.481814],[-2.238214,53.481798]]}},{"type":"Feature","properties":{},"geometry":{"type":"LineString","coordinates":[[-2.240945,53.48836],[-2.240553,53.488608],[-2.240363,53.488721],[-2.24032,53.488738]]}},{"type":"Feature","properties":{},"geometry":{"type":"LineString","coordinates":[[-2.23982,53.488877],[-2.24006,53.488805],[-2.240291,53.488708]]}},{"type":"Feature","properties":{},"geometry":{"type":"LineString","coordinates":[[-2.23982,53.488877],[-2.240244,53.488664]]}},{"type":"Feature","properties":{},"geometry":{"type":"LineString","coordinates":[[-2.228019,53.491558],[-2.22825,53.491493],[-2.228573,53.491416],[-2.228982,53.491334],[-2.229414,53.491258],[-2.229979,53.49117]]}},{"type":"Feature","properties":{},"geometry":{"type":"LineString","coordinates":[[-2.229994,53.491197],[-2.229423,53.49129],[-2.228996,53.491364],[-2.228592,53.491445],[-2.228273,53.491524],[-2.228041,53.491588]]}},{"type":"Feature","properties":{},"geometry":{"type":"LineString","coordinates":[[-2.231136,53.491018],[-2.229994,53.491197]]}},{"type":"Feature","properties":{},"geometry":{"type":"LineString","coordinates":[[-2.229979,53.49117],[-2.231125,53.490989]]}},{"type":"Feature","properties":{},"geometry":{"type":"LineString","coordinates":[[-2.237321,53.48961],[-2.238794,53.489183],[-2.239151,53.489079],[-2.239628,53.488935],[-2.23982,53.488877]]}},{"type":"Feature","properties":{},"geometry":{"type":"LineString","coordinates":[[-2.22749,53.477452],[-2.227513,53.477444],[-2.227648,53.477398],[-2.227851,53.47733]]}},{"type":"Feature","properties":{},"geometry":{"type":"LineString","coordinates":[[-2.227947,53.477354],[-2.227804,53.477401],[-2.227647,53.477463],[-2.227618,53.477474]]}},{"type":"Feature","properties":{},"geometry":{"type":"LineString","coordinates":[[-2.241427,53.487819],[-2.241674,53.487666],[-2.241879,53.487522],[-2.241923,53.487453],[-2.241944,53.487409],[-2.241938,53.487358],[-2.241916,53.487285]]}},{"type":"Feature","properties":{},"geometry":{"type":"LineString","coordinates":[[-2.241664,53.487922],[-2.241604,53.487962]]}},{"type":"Feature","properties":{},"geometry":{"type":"LineString","coordinates":[[-2.241519,53.487896],[-2.241551,53.487875]]}},{"type":"Feature","properties":{},"geometry":{"type":"LineString","coordinates":[[-2.241721,53.487074],[-2.241626,53.486987]]}},{"type":"Feature","properties":{},"geometry":{"type":"LineString","coordinates":[[-2.241779,53.487053],[-2.241677,53.486953]]}},{"type":"Feature","properties":{},"geometry":{"type":"LineString","coordinates":[[-2.241538,53.486857],[-2.241644,53.48692],[-2.241688,53.486946]]}},{"type":"Feature","properties":{},"geometry":{"type":"LineString","coordinates":[[-2.241626,53.486812],[-2.241724,53.486921]]}},{"type":"Feature","properties":{},"geometry":{"type":"LineString","coordinates":[[-2.238656,53.484841],[-2.238627,53.484789],[-2.238619,53.484764],[-2.238583,53.484645],[-2.238562,53.484584],[-2.238555,53.484534],[-2.238555,53.484477]]}},{"type":"Feature","properties":{},"geometry":{"type":"LineString","coordinates":[[-2.242996,53.479009],[-2.242845,53.478943],[-2.242783,53.478913],[-2.242756,53.478899],[-2.242727,53.478882],[-2.242707,53.478864],[-2.242692,53.478845],[-2.242684,53.478837],[-2.242677,53.478827],[-2.242661,53.478806],[-2.242638,53.478772],[-2.242608,53.478735],[-2.242593,53.478699],[-2.242595,53.478674],[-2.242617,53.478618],[-2.242641,53.478579],[-2.242674,53.478531],[-2.24272,53.47848]]}},{"type":"Feature","properties":{},"geometry":{"type":"LineString","coordinates":[[-2.238894,53.480923],[-2.238974,53.480871],[-2.239243,53.480684],[-2.239683,53.480394],[-2.239747,53.480366]]}},{"type":"Feature","properties":{},"geometry":{"type":"LineString","coordinates":[[-2.239836,53.480411],[-2.239762,53.480433],[-2.239663,53.480464],[-2.239434,53.480619],[-2.239034,53.480894],[-2.238945,53.480956]]}},{"type":"Feature","properties":{},"geometry":{"type":"LineString","coordinates":[[-2.243324,53.477911],[-2.243545,53.477756],[-2.243765,53.477569]]}},{"type":"Feature","properties":{},"geometry":{"type":"LineString","coordinates":[[-2.242754,53.478493],[-2.242674,53.478531],[-2.242528,53.478589],[-2.242481,53.47861],[-2.242454,53.478621],[-2.242393,53.478648],[-2.242366,53.47866],[-2.242334,53.478677]]}},{"type":"Feature","properties":{},"geometry":{"type":"LineString","coordinates":[[-2.242911,53.478531],[-2.242827,53.478599],[-2.242781,53.478651],[-2.242774,53.47866]]}},{"type":"Feature","properties":{},"geometry":{"type":"LineString","coordinates":[[-2.242774,53.47866],[-2.24276,53.478715],[-2.24277,53.47876],[-2.242774,53.478781],[-2.242795,53.478814]]}},{"type":"Feature","properties":{},"geometry":{"type":"LineString","coordinates":[[-2.242795,53.478814],[-2.242813,53.478836],[-2.242847,53.478867],[-2.242891,53.478894],[-2.242973,53.478938]]}},{"type":"Feature","properties":{},"geometry":{"type":"LineString","coordinates":[[-2.243765,53.477569],[-2.24383,53.477509],[-2.243895,53.47746],[-2.243938,53.477434],[-2.244009,53.477395],[-2.244081,53.477353],[-2.244183,53.477295],[-2.244297,53.47721]]}},{"type":"Feature","properties":{},"geometry":{"type":"LineString","coordinates":[[-2.245182,53.476682],[-2.244841,53.476884],[-2.244309,53.477265],[-2.244161,53.477375],[-2.244042,53.477483]]}},{"type":"Feature","properties":{},"geometry":{"type":"LineString","coordinates":[[-2.245182,53.476682],[-2.244847,53.476932],[-2.244365,53.477282],[-2.244281,53.477345],[-2.244224,53.477401],[-2.244174,53.477455],[-2.24411,53.477513]]}},{"type":"Feature","properties":{},"geometry":{"type":"LineString","coordinates":[[-2.242973,53.478938],[-2.243099,53.479003],[-2.243196,53.479051],[-2.243518,53.479253],[-2.244004,53.479564],[-2.244391,53.479786]]}},{"type":"Feature","properties":{},"geometry":{"type":"LineString","coordinates":[[-2.244391,53.479786],[-2.244457,53.479812],[-2.244473,53.479818],[-2.244566,53.479856],[-2.244804,53.479928],[-2.244922,53.479967],[-2.245006,53.480002],[-2.245083,53.480044],[-2.245142,53.48011],[-2.245157,53.480161],[-2.245161,53.480184],[-2.245161,53.480252]]}},{"type":"Feature","properties":{},"geometry":{"type":"LineString","coordinates":[[-2.242923,53.484041],[-2.24294,53.484017],[-2.242976,53.483967],[-2.243385,53.483396],[-2.24351,53.483241],[-2.243591,53.483139]]}},{"type":"Feature","properties":{},"geometry":{"type":"LineString","coordinates":[[-2.243645,53.483148],[-2.243558,53.483256],[-2.243229,53.48372]]}},{"type":"Feature","properties":{},"geometry":{"type":"LineString","coordinates":[[-2.243229,53.48372],[-2.243047,53.484073],[-2.242939,53.48424],[-2.242759,53.484472],[-2.242578,53.484703],[-2.242483,53.484797]]}},{"type":"Feature","properties":{},"geometry":{"type":"LineString","coordinates":[[-2.242002,53.485215],[-2.24209,53.485119],[-2.24212,53.48508],[-2.242143,53.485052],[-2.242186,53.485004],[-2.242293,53.484851],[-2.242375,53.484764],[-2.242632,53.48444],[-2.242923,53.484041]]}},{"type":"Feature","properties":{},"geometry":{"type":"LineString","coordinates":[[-2.241575,53.485772],[-2.241694,53.485611],[-2.242002,53.485215]]}},{"type":"Feature","properties":{},"geometry":{"type":"LineString","coordinates":[[-2.244356,53.479821],[-2.24429,53.479788],[-2.243828,53.479501],[-2.242996,53.479009]]}},{"type":"Feature","properties":{},"geometry":{"type":"LineString","coordinates":[[-2.245083,53.480281],[-2.245094,53.480233],[-2.245092,53.480191],[-2.245069,53.480132],[-2.245045,53.4801],[-2.245019,53.480075],[-2.244965,53.480038],[-2.244927,53.480018],[-2.244893,53.48],[-2.244769,53.479954],[-2.244561,53.479889]]}},{"type":"Feature","properties":{},"geometry":{"type":"LineString","coordinates":[[-2.244561,53.479889],[-2.244466,53.479864],[-2.244356,53.479821]]}},{"type":"Feature","properties":{},"geometry":{"type":"LineString","coordinates":[[-2.237578,53.480532],[-2.238037,53.480782],[-2.23816,53.480858],[-2.238288,53.480931]]}},{"type":"Feature","properties":{},"geometry":{"type":"LineString","coordinates":[[-2.236032,53.479956],[-2.23591,53.479917],[-2.235789,53.479858]]}},{"type":"Feature","properties":{},"geometry":{"type":"LineString","coordinates":[[-2.235794,53.479821],[-2.235859,53.479855],[-2.235946,53.479895],[-2.236012,53.479916],[-2.236085,53.47993],[-2.236114,53.479935],[-2.236263,53.47996],[-2.236339,53.47997],[-2.236466,53.479985],[-2.236585,53.480025],[-2.236725,53.480095],[-2.237056,53.480265],[-2.237455,53.480472],[-2.237578,53.480532]]}},{"type":"Feature","properties":{},"geometry":{"type":"LineString","coordinates":[[-2.241233,53.486449],[-2.2412,53.486391],[-2.241152,53.486337],[-2.241105,53.486297],[-2.241056,53.486266],[-2.240965,53.48623],[-2.240756,53.486165]]}},{"type":"Feature","properties":{},"geometry":{"type":"LineString","coordinates":[[-2.240785,53.486114],[-2.240925,53.486167],[-2.241038,53.48621],[-2.241074,53.486227],[-2.241111,53.486245],[-2.241186,53.486292],[-2.241242,53.486342],[-2.241269,53.486382],[-2.24129,53.486445],[-2.241362,53.486631],[-2.241389,53.486699],[-2.241467,53.48679],[-2.241538,53.486857]]}}]}